{"type":"FeatureCollection","features":[{"type":"Feature","properties":{"kind":"farmland"},"geometry":{"type":"Polygon","coordinates":[[[9.115952,53.911246],[9.1157,53.911088],[9.1157,53.9113],[9.115873,53.9113],[9.115952,53.911246]]]}},{"type":"Feature","properties":{"kind":"farmland"},"geometry":{"type":"Polygon","coordinates":[[[9.117214,53.910753],[9.118684,53.909334],[9.117833,53.90888],[9.118179,53.908642],[9.117951,53.908503],[9.118345,53.908191],[9.118652,53.908331],[9.118833,53.908212],[9.119767,53.908727],[9.120986,53.908171],[9.122478,53.907415],[9.123406,53.906884],[9.123362,53.906724],[9.123406,53.906483],[9.124287,53.906155],[9.125687,53.905927],[9.127063,53.905725],[9.125103,53.904302],[9.124553,53.90454],[9.123276,53.904744],[9.123113,53.904728],[9.122768,53.904838],[9.122874,53.904951],[9.12276,53.904989],[9.12216,53.905026],[9.122017,53.904957],[9.120531,53.905026],[9.118922,53.904068],[9.117476,53.903214],[9.116568,53.902683],[9.116115,53.902516],[9.116407,53.901659],[9.1157,53.901249],[9.1157,53.910161],[9.117214,53.910753]]]}},{"type":"Feature","properties":{"kind":"residential"},"geometry":{"type":"Polygon","coordinates":[[[9.158419,53.897307],[9.158488,53.897305],[9.158913,53.897636],[9.159557,53.898079],[9.160528,53.898801],[9.160614,53.898768],[9.160897,53.898956],[9.161147,53.89883],[9.160867,53.898597],[9.160704,53.898462],[9.161195,53.898497],[9.161446,53.898437],[9.161634,53.898269],[9.162122,53.898033],[9.161418,53.897495],[9.162569,53.89746],[9.16501,53.897469],[9.16506,53.896724],[9.165865,53.896732],[9.165825,53.895897],[9.165742,53.895679],[9.165273,53.895637],[9.164633,53.89558],[9.164642,53.895501],[9.164788,53.894107],[9.164876,53.892623],[9.164909,53.89208],[9.164704,53.892074],[9.160733,53.892047],[9.16074,53.892531],[9.158675,53.892571],[9.158645,53.892077],[9.158058,53.892106],[9.158049,53.89257],[9.157564,53.892559],[9.157496,53.892422],[9.15667,53.892435],[9.156651,53.892624],[9.156467,53.892635],[9.156268,53.892574],[9.156144,53.892578],[9.155929,53.892757],[9.15576,53.892945],[9.155596,53.893215],[9.155551,53.89331],[9.155475,53.893569],[9.155469,53.893782],[9.154535,53.893803],[9.154414,53.893873],[9.154712,53.894191],[9.15513,53.894548],[9.15498,53.894639],[9.155555,53.89509],[9.156174,53.895598],[9.156034,53.89561],[9.155698,53.895766],[9.154917,53.895497],[9.154614,53.895759],[9.154984,53.896038],[9.155338,53.896252],[9.155503,53.896351],[9.155627,53.896383],[9.156279,53.896416],[9.156472,53.896913],[9.156688,53.89687],[9.157002,53.89708],[9.157358,53.896913],[9.157682,53.896761],[9.158419,53.897307]],[[9.161439,53.893723],[9.160468,53.893702],[9.160479,53.893016],[9.161402,53.89301],[9.161399,53.893111],[9.163643,53.893111],[9.16367,53.894033],[9.161435,53.894049],[9.161439,53.893723]]]}},{"type":"Feature","properties":{"kind":"forest"},"geometry":{"type":"Polygon","coordinates":[[[9.126212,53.903932],[9.125964,53.903728],[9.126854,53.903346],[9.126464,53.902992],[9.126117,53.902779],[9.125992,53.902702],[9.125471,53.902598],[9.125485,53.902399],[9.12563,53.902397],[9.125736,53.902344],[9.125752,53.902301],[9.125613,53.902239],[9.125413,53.902214],[9.125213,53.902211],[9.124958,53.90212],[9.124622,53.901989],[9.124351,53.901732],[9.124234,53.90176],[9.123259,53.90226],[9.12322,53.902301],[9.123198,53.902402],[9.123261,53.902484],[9.127794,53.905627],[9.128144,53.905477],[9.126212,53.903932]],[[9.124764,53.902804],[9.125003,53.902859],[9.124923,53.902991],[9.124681,53.90305],[9.124485,53.902828],[9.124163,53.902575],[9.123927,53.902423],[9.123713,53.902272],[9.123906,53.902095],[9.124142,53.901994],[9.124292,53.902234],[9.124636,53.902335],[9.124845,53.902441],[9.124764,53.902804]]]}},{"type":"Feature","properties":{"kind":"wood"},"geometry":{"type":"Polygon","coordinates":[[[9.131805,53.909601],[9.131898,53.909576],[9.132225,53.909547],[9.13248,53.909503],[9.132704,53.909458],[9.132974,53.90941],[9.133245,53.909323],[9.133459,53.909228],[9.133723,53.909113],[9.133594,53.909105],[9.133383,53.909124],[9.133177,53.909096],[9.132809,53.909063],[9.132391,53.908998],[9.131977,53.908662],[9.131913,53.908638],[9.131824,53.908549],[9.131736,53.908476],[9.131465,53.908284],[9.130972,53.907875],[9.130885,53.907759],[9.130812,53.907594],[9.130835,53.907553],[9.130914,53.907499],[9.131066,53.907427],[9.131503,53.907252],[9.131319,53.907108],[9.130982,53.907264],[9.130679,53.907442],[9.130633,53.907574],[9.130748,53.907892],[9.130903,53.908072],[9.131107,53.90839],[9.131252,53.908712],[9.131341,53.908953],[9.13144,53.909302],[9.131594,53.909744],[9.131712,53.90983],[9.131823,53.909789],[9.131868,53.909768],[9.131805,53.909601]],[[9.13188,53.909173],[9.131854,53.909183],[9.131803,53.909189],[9.13175,53.909177],[9.131713,53.909166],[9.131685,53.909142],[9.131664,53.909115],[9.131649,53.909089],[9.131642,53.909053],[9.131649,53.909018],[9.131665,53.908982],[9.131693,53.90895],[9.131731,53.908934],[9.13179,53.908933],[9.131846,53.90893],[9.131886,53.90894],[9.131912,53.908957],[9.131928,53.908976],[9.131941,53.908994],[9.131978,53.909029],[9.132014,53.909059],[9.13201,53.909085],[9.131986,53.909118],[9.131959,53.909138],[9.131923,53.909153],[9.131894,53.909163],[9.13188,53.909173]],[[9.131998,53.909281],[9.131964,53.909258],[9.131956,53.909237],[9.131959,53.909211],[9.131975,53.909189],[9.132029,53.909167],[9.132069,53.909162],[9.132105,53.909174],[9.132148,53.909182],[9.132189,53.909178],[9.132239,53.909166],[9.132283,53.909153],[9.132326,53.909147],[9.132377,53.909137],[9.132436,53.909147],[9.132475,53.909162],[9.132515,53.909178],[9.132542,53.909207],[9.132553,53.90924],[9.132551,53.909271],[9.132542,53.909298],[9.13251,53.909324],[9.132463,53.90935],[9.132432,53.909369],[9.132364,53.909381],[9.132286,53.909374],[9.132212,53.90936],[9.132149,53.909342],[9.132102,53.909324],[9.132069,53.909313],[9.132035,53.909305],[9.131998,53.909281]]]}},{"type":"Feature","properties":{"kind":"meadow"},"geometry":{"type":"Polygon","coordinates":[[[9.144062,53.910936],[9.142852,53.910699],[9.142483,53.9113],[9.143942,53.9113],[9.144046,53.911151],[9.144111,53.911069],[9.144149,53.910953],[9.144062,53.910936]]]}},{"type":"Feature","properties":{"kind":"grassland"},"geometry":{"type":"Polygon","coordinates":[[[9.166165,53.895191],[9.166239,53.894996],[9.165026,53.894967],[9.16499,53.895428],[9.165202,53.895512],[9.165446,53.89549],[9.165934,53.895542],[9.166165,53.895191]],[[9.165782,53.895445],[9.165692,53.895448],[9.165649,53.895428],[9.16565,53.89538],[9.165734,53.895326],[9.165859,53.895287],[9.165914,53.895329],[9.165911,53.895365],[9.165782,53.895445]]]}},{"type":"Feature","properties":{"kind":"grass"},"geometry":{"type":"Polygon","coordinates":[[[9.119226,53.903419],[9.119287,53.903417],[9.119373,53.903414],[9.120303,53.903411],[9.120406,53.903378],[9.120549,53.903315],[9.120577,53.903272],[9.120564,53.903219],[9.120361,53.903086],[9.120335,53.903099],[9.120188,53.903171],[9.120064,53.903144],[9.119636,53.903138],[9.11953,53.903066],[9.119254,53.903209],[9.118379,53.902663],[9.11829,53.902752],[9.119226,53.903419]],[[9.120457,53.903276],[9.120369,53.903313],[9.120256,53.903336],[9.119814,53.903327],[9.119548,53.903338],[9.119358,53.903325],[9.119285,53.903283],[9.119342,53.90327],[9.119642,53.903227],[9.1198,53.903213],[9.119991,53.903224],[9.120208,53.903235],[9.120482,53.903186],[9.120514,53.903216],[9.1205,53.903243],[9.120495,53.903257],[9.120457,53.903276]]]}},{"type":"Feature","properties":{"kind":"wood"},"geometry":{"type":"Polygon","coordinates":[[[9.153922,53.89317],[9.153926,53.893229],[9.154001,53.893471],[9.154094,53.893725],[9.153894,53.893792],[9.153919,53.893814],[9.15498,53.894639],[9.15513,53.894548],[9.154712,53.894191],[9.154414,53.893873],[9.154535,53.893803],[9.154571,53.893677],[9.154689,53.893486],[9.154955,53.893438],[9.154674,53.892738],[9.154707,53.892399],[9.154969,53.892253],[9.155102,53.892254],[9.155269,53.892573],[9.155929,53.892757],[9.156144,53.892578],[9.156254,53.892482],[9.156318,53.892375],[9.156309,53.892293],[9.156278,53.892254],[9.15616,53.892144],[9.156018,53.892122],[9.155847,53.892122],[9.155613,53.892107],[9.155149,53.89203],[9.155058,53.892071],[9.15491,53.892101],[9.15353,53.892218],[9.153922,53.89317]],[[9.154114,53.893634],[9.154067,53.893548],[9.154079,53.893461],[9.154038,53.893329],[9.153979,53.893277],[9.153997,53.893215],[9.154097,53.893211],[9.154185,53.893236],[9.154291,53.893173],[9.154397,53.893173],[9.154438,53.89318],[9.15445,53.893309],[9.154526,53.893364],[9.154569,53.893563],[9.154226,53.893711],[9.154114,53.893634]]]}},{"type":"Feature","properties":{"kind":"meadow"},"geometry":{"type":"Polygon","coordinates":[[[9.17477,53.896218],[9.1767,53.896283],[9.1767,53.890385],[9.173863,53.890335],[9.173249,53.890342],[9.17279,53.8904],[9.172085,53.890591],[9.172157,53.890731],[9.173049,53.890745],[9.173005,53.891017],[9.172035,53.891006],[9.171744,53.890996],[9.17161,53.892096],[9.171175,53.894505],[9.170982,53.895687],[9.17132,53.895943],[9.17132,53.896045],[9.17477,53.896218]],[[9.175183,53.890873],[9.176685,53.890892],[9.176674,53.891783],[9.175118,53.891764],[9.175183,53.890873]]]}},{"type":"Feature","properties":{"kind":"grassland"},"geometry":{"type":"Polygon","coordinates":[[[9.155613,53.892107],[9.155847,53.892122],[9.156018,53.892122],[9.15616,53.892144],[9.156278,53.892254],[9.156739,53.892223],[9.157443,53.892176],[9.158058,53.892106],[9.158645,53.892077],[9.158918,53.892036],[9.160733,53.892047],[9.164704,53.892074],[9.1648,53.890701],[9.164794,53.890519],[9.164778,53.890245],[9.16477,53.890176],[9.163633,53.890163],[9.162698,53.890218],[9.162565,53.890079],[9.159228,53.890036],[9.156418,53.890018],[9.156332,53.890253],[9.154664,53.890822],[9.154551,53.890879],[9.154578,53.891006],[9.154648,53.891303],[9.154744,53.891717],[9.154889,53.891919],[9.155149,53.89203],[9.155613,53.892107]],[[9.164266,53.89116],[9.164266,53.890484],[9.164486,53.890484],[9.16454,53.890601],[9.16455,53.891382],[9.164277,53.891382],[9.164266,53.89116]],[[9.160827,53.890399],[9.161372,53.890293],[9.161395,53.890267],[9.161424,53.89029],[9.161206,53.890399],[9.160947,53.890535],[9.160872,53.890557],[9.160827,53.890399]]]}},{"type":"Feature","properties":{"kind":"industrial"},"geometry":{"type":"Polygon","coordinates":[[[9.168712,53.902607],[9.168663,53.902985],[9.168658,53.903351],[9.168685,53.903672],[9.16873,53.903905],[9.171085,53.905023],[9.173591,53.906249],[9.174266,53.906541],[9.175368,53.906894],[9.175683,53.906995],[9.1767,53.907336],[9.1767,53.896594],[9.173525,53.896406],[9.173435,53.8963],[9.171086,53.896178],[9.170882,53.896236],[9.170522,53.89622],[9.170253,53.896128],[9.169594,53.896097],[9.166762,53.895964],[9.166486,53.895974],[9.16636,53.896024],[9.166211,53.8962],[9.166115,53.896396],[9.166124,53.896843],[9.166123,53.897885],[9.16422,53.89787],[9.164232,53.898398],[9.163344,53.898394],[9.163268,53.897857],[9.162758,53.897857],[9.162278,53.897958],[9.162122,53.898033],[9.161634,53.898269],[9.161446,53.898437],[9.161543,53.89863],[9.16159,53.898665],[9.16309,53.899749],[9.163304,53.899913],[9.163412,53.899966],[9.163542,53.900022],[9.164179,53.900087],[9.164883,53.90008],[9.164888,53.900231],[9.164908,53.900788],[9.165771,53.900775],[9.166052,53.900771],[9.166053,53.901277],[9.166062,53.901357],[9.167194,53.90142],[9.168843,53.901516],[9.168712,53.902607]]]}},{"type":"Feature","properties":{"kind":"pitch"},"geometry":{"type":"Polygon","coordinates":[[[9.129772,53.889537],[9.129981,53.889236],[9.129741,53.889178],[9.129532,53.889479],[9.129772,53.889537]]]}},{"type":"Feature","properties":{"kind":"recreation_ground"},"geometry":{"type":"Polygon","coordinates":[[[9.131009,53.889436],[9.131147,53.889465],[9.131221,53.889382],[9.131347,53.889415],[9.13146,53.889268],[9.131347,53.889241],[9.131568,53.888987],[9.129744,53.888498],[9.129645,53.88863],[9.129585,53.888649],[9.129576,53.888745],[9.129415,53.888994],[9.12954,53.889023],[9.129541,53.889104],[9.129556,53.889144],[9.129714,53.88917],[9.129679,53.889219],[9.129485,53.889497],[9.129459,53.889534],[9.129669,53.889546],[9.129788,53.889549],[9.130047,53.889192],[9.130558,53.889324],[9.131009,53.889436]]]}},{"type":"Feature","properties":{"kind":"industrial"},"geometry":{"type":"Polygon","coordinates":[[[9.167638,53.910293],[9.163572,53.90816],[9.161876,53.907254],[9.161305,53.906985],[9.160275,53.906437],[9.160201,53.906399],[9.160092,53.906337],[9.159687,53.906108],[9.159508,53.906223],[9.158328,53.905605],[9.1566,53.904655],[9.15562,53.904161],[9.151249,53.907104],[9.150489,53.907632],[9.149814,53.90813],[9.148735,53.908933],[9.151497,53.910106],[9.15144,53.910159],[9.151794,53.910317],[9.151713,53.91038],[9.154007,53.9113],[9.169364,53.9113],[9.167638,53.910293]]]}},{"type":"Feature","properties":{"kind":"residential"},"geometry":{"type":"Polygon","coordinates":[[[9.174844,53.911223],[9.174813,53.9113],[9.174976,53.9113],[9.174844,53.911223]]]}},{"type":"Feature","properties":{"kind":"meadow"},"geometry":{"type":"Polygon","coordinates":[[[9.151713,53.91038],[9.151794,53.910317],[9.15144,53.910159],[9.151497,53.910106],[9.148735,53.908933],[9.146859,53.910332],[9.147299,53.91083],[9.147705,53.911195],[9.14807,53.9113],[9.154007,53.9113],[9.151713,53.91038]]]}},{"type":"Feature","properties":{"kind":"forest"},"geometry":{"type":"Polygon","coordinates":[[[9.145862,53.910956],[9.146079,53.910497],[9.14673,53.909964],[9.147956,53.908906],[9.147817,53.908813],[9.147155,53.909249],[9.146635,53.90883],[9.144874,53.9113],[9.145669,53.9113],[9.145862,53.910956]]]}},{"type":"Feature","properties":{"kind":"cemetery"},"geometry":{"type":"Polygon","coordinates":[[[9.140107,53.903584],[9.140916,53.904496],[9.141851,53.905419],[9.144475,53.903895],[9.143736,53.903403],[9.144358,53.90311],[9.143556,53.902558],[9.143283,53.902322],[9.143197,53.902377],[9.142905,53.902265],[9.142674,53.902069],[9.14028,53.903112],[9.140107,53.903584]]]}},{"type":"Feature","properties":{"kind":"residential"},"geometry":{"type":"Polygon","coordinates":[[[9.126863,53.888824],[9.126028,53.889886],[9.125433,53.890506],[9.125355,53.890602],[9.125342,53.890731],[9.125446,53.890856],[9.12583,53.891176],[9.126195,53.89151],[9.127903,53.893128],[9.128634,53.89378],[9.129049,53.894183],[9.128847,53.894289],[9.129124,53.894445],[9.129129,53.894565],[9.128829,53.894729],[9.128684,53.894597],[9.127836,53.894995],[9.128061,53.895201],[9.127691,53.895366],[9.128525,53.89602],[9.128999,53.896336],[9.129236,53.896476],[9.129549,53.89659],[9.130681,53.896721],[9.13132,53.896907],[9.131691,53.897038],[9.131998,53.89723],[9.132497,53.897529],[9.133482,53.89752],[9.133912,53.897648],[9.134567,53.897927],[9.134931,53.898277],[9.135537,53.898848],[9.136157,53.899363],[9.13736,53.900511],[9.138649,53.901673],[9.138972,53.902353],[9.139135,53.902636],[9.139761,53.903371],[9.14028,53.903112],[9.142674,53.902069],[9.142905,53.902265],[9.143197,53.902377],[9.143283,53.902322],[9.143556,53.902558],[9.144358,53.90311],[9.143736,53.903403],[9.144475,53.903895],[9.141851,53.905419],[9.143017,53.90635],[9.144427,53.907304],[9.14571,53.90814],[9.146635,53.90883],[9.147155,53.909249],[9.147817,53.908813],[9.147815,53.908703],[9.147563,53.908544],[9.150274,53.906527],[9.150388,53.90645],[9.154559,53.903961],[9.153282,53.903287],[9.15294,53.903114],[9.152012,53.902723],[9.152484,53.90237],[9.152822,53.902521],[9.152985,53.902418],[9.150218,53.900979],[9.148885,53.900253],[9.147556,53.899518],[9.146254,53.898756],[9.146315,53.898631],[9.146694,53.897849],[9.146695,53.897591],[9.14797,53.897341],[9.147949,53.89694],[9.147848,53.896787],[9.147778,53.896715],[9.147657,53.896669],[9.147521,53.896658],[9.146454,53.896031],[9.146004,53.896081],[9.145461,53.896158],[9.145395,53.895998],[9.145207,53.896023],[9.145122,53.89593],[9.145024,53.895939],[9.144708,53.895567],[9.144423,53.895232],[9.144079,53.895015],[9.143572,53.894724],[9.142453,53.894047],[9.141949,53.89427],[9.141075,53.893782],[9.139167,53.893363],[9.136794,53.89358],[9.135961,53.893668],[9.135751,53.8937],[9.13507,53.893781],[9.134865,53.893719],[9.134512,53.893504],[9.133611,53.892895],[9.13341,53.892781],[9.133157,53.892875],[9.13264,53.893061],[9.131855,53.893403],[9.131589,53.893088],[9.131499,53.892855],[9.13082,53.893026],[9.130881,53.891488],[9.130959,53.890913],[9.130989,53.890708],[9.130423,53.890266],[9.130108,53.890033],[9.129865,53.889879],[9.129747,53.889806],[9.129273,53.889786],[9.128772,53.889812],[9.127746,53.889885],[9.127494,53.889951],[9.127312,53.889969],[9.127202,53.889913],[9.127084,53.889751],[9.127529,53.889772],[9.127709,53.88973],[9.128272,53.889649],[9.129221,53.889576],[9.129269,53.889531],[9.129306,53.889479],[9.129332,53.889443],[9.129518,53.889207],[9.129526,53.889195],[9.129556,53.889144],[9.129541,53.889104],[9.128889,53.88893],[9.128861,53.888811],[9.127841,53.888571],[9.127625,53.88829],[9.127242,53.888363],[9.127156,53.888416],[9.126863,53.888824]]]}},{"type":"Feature","properties":{"kind":"farmland"},"geometry":{"type":"Polygon","coordinates":[[[9.12228,53.907671],[9.12097,53.908299],[9.1211,53.908499],[9.119649,53.909758],[9.119522,53.909846],[9.118786,53.909485],[9.117314,53.910859],[9.117449,53.9113],[9.130596,53.9113],[9.130766,53.910871],[9.130941,53.910088],[9.130845,53.909508],[9.130726,53.908922],[9.129297,53.908088],[9.12895,53.90843],[9.128505,53.908495],[9.128047,53.90852],[9.126813,53.908527],[9.12597,53.908575],[9.123517,53.90694],[9.12228,53.907671]]]}},{"type":"Feature","properties":{"kind":"forest"},"geometry":{"type":"Polygon","coordinates":[[[9.130093,53.907905],[9.130726,53.908922],[9.130845,53.909508],[9.130941,53.910088],[9.130766,53.910871],[9.130596,53.9113],[9.13081,53.9113],[9.13101,53.910855],[9.131182,53.910307],[9.131195,53.909999],[9.131186,53.909578],[9.13109,53.90916],[9.130814,53.908457],[9.130555,53.908039],[9.130136,53.90765],[9.130064,53.907601],[9.129976,53.907622],[9.129861,53.907672],[9.130093,53.907905]]]}},{"type":"Feature","properties":{"kind":"forest"},"geometry":{"type":"Polygon","coordinates":[[[9.144119,53.90761],[9.142952,53.906919],[9.142196,53.906324],[9.141439,53.905766],[9.140913,53.90532],[9.140827,53.905299],[9.139758,53.904258],[9.139319,53.903788],[9.139113,53.903646],[9.13884,53.903843],[9.138525,53.904243],[9.139455,53.904998],[9.140078,53.905338],[9.140363,53.90551],[9.140525,53.90578],[9.140307,53.906058],[9.139614,53.906324],[9.140311,53.906883],[9.140357,53.906927],[9.141222,53.907721],[9.142092,53.907314],[9.143236,53.908295],[9.143944,53.908024],[9.144338,53.908023],[9.144334,53.907732],[9.144119,53.90761]]]}},{"type":"Feature","properties":{"kind":"park"},"geometry":{"type":"Polygon","coordinates":[[[9.131193,53.894981],[9.130648,53.894562],[9.12955,53.894993],[9.131332,53.896588],[9.131596,53.896544],[9.132203,53.896372],[9.132668,53.896241],[9.131193,53.894981]]]}},{"type":"Feature","properties":{"kind":"allotments"},"geometry":{"type":"Polygon","coordinates":[[[9.131598,53.890449],[9.131956,53.891008],[9.13161,53.891115],[9.132016,53.891647],[9.131508,53.891786],[9.131857,53.892262],[9.131364,53.892428],[9.131499,53.892855],[9.131589,53.893088],[9.131855,53.893403],[9.13264,53.893061],[9.133157,53.892875],[9.13341,53.892781],[9.133611,53.892895],[9.134512,53.893504],[9.134865,53.893719],[9.13507,53.893781],[9.135751,53.8937],[9.135961,53.893668],[9.136794,53.89358],[9.139167,53.893363],[9.13999,53.893289],[9.140082,53.893252],[9.140156,53.893185],[9.139847,53.893024],[9.138763,53.892446],[9.136617,53.891327],[9.134917,53.890452],[9.133707,53.890136],[9.132949,53.889932],[9.132026,53.889691],[9.131987,53.889738],[9.131901,53.890106],[9.131598,53.890449]]]}},{"type":"Feature","properties":{"kind":"meadow"},"geometry":{"type":"Polygon","coordinates":[[[9.141222,53.907721],[9.142441,53.908708],[9.142853,53.909103],[9.142954,53.90925],[9.143063,53.909469],[9.14313,53.909661],[9.143137,53.909868],[9.143118,53.910073],[9.143418,53.910142],[9.143592,53.909871],[9.14379,53.909933],[9.143967,53.909973],[9.144052,53.909977],[9.144285,53.909939],[9.144434,53.909954],[9.144942,53.909791],[9.14505,53.909741],[9.145168,53.909738],[9.145231,53.909753],[9.145301,53.909648],[9.145434,53.909463],[9.145547,53.909294],[9.145624,53.909167],[9.145667,53.909079],[9.145647,53.908968],[9.145554,53.908816],[9.144338,53.908023],[9.143944,53.908024],[9.143236,53.908295],[9.142092,53.907314],[9.141222,53.907721]]]}},{"type":"Feature","properties":{"kind":"grass"},"geometry":{"type":"Polygon","coordinates":[[[9.136222,53.904092],[9.136559,53.904315],[9.13683,53.904547],[9.137026,53.904714],[9.137098,53.904775],[9.137734,53.905319],[9.138269,53.905551],[9.138696,53.905737],[9.139254,53.906068],[9.139614,53.906324],[9.140307,53.906058],[9.140525,53.90578],[9.140363,53.90551],[9.140078,53.905338],[9.139455,53.904998],[9.138525,53.904243],[9.13884,53.903843],[9.139113,53.903646],[9.13879,53.90326],[9.138159,53.902572],[9.13679,53.901248],[9.13596,53.901558],[9.135317,53.901817],[9.134037,53.90233],[9.134214,53.902494],[9.136222,53.904092]]]}},{"type":"Feature","properties":{"kind":"grass"},"geometry":{"type":"Polygon","coordinates":[[[9.134188,53.900979],[9.133919,53.900817],[9.133622,53.900784],[9.133586,53.900804],[9.134849,53.901852],[9.136446,53.901221],[9.135786,53.900683],[9.135572,53.90047],[9.135389,53.900229],[9.135269,53.900137],[9.135199,53.900117],[9.134847,53.900337],[9.135643,53.901012],[9.134628,53.901392],[9.134188,53.900979]]]}},{"type":"Feature","properties":{"kind":"forest"},"geometry":{"type":"Polygon","coordinates":[[[9.163023,53.897736],[9.165871,53.897742],[9.165865,53.896732],[9.16506,53.896724],[9.16501,53.897469],[9.162569,53.89746],[9.162599,53.89774],[9.163023,53.897736]]]}},{"type":"Feature","properties":{"kind":"forest"},"geometry":{"type":"Polygon","coordinates":[[[9.149181,53.907967],[9.150405,53.906955],[9.150651,53.906778],[9.150274,53.906527],[9.147563,53.908544],[9.147815,53.908703],[9.148002,53.90864],[9.148184,53.908723],[9.149181,53.907967]]]}},{"type":"Feature","properties":{"kind":"forest"},"geometry":{"type":"Polygon","coordinates":[[[9.152822,53.902521],[9.152484,53.90237],[9.152012,53.902723],[9.15294,53.903114],[9.153282,53.903287],[9.154559,53.903961],[9.150388,53.90645],[9.150784,53.906691],[9.154989,53.903997],[9.155039,53.903832],[9.155041,53.903668],[9.154173,53.903197],[9.154105,53.903081],[9.152985,53.902418],[9.152822,53.902521]]]}},{"type":"Feature","properties":{"kind":"meadow"},"geometry":{"type":"Polygon","coordinates":[[[9.123834,53.890813],[9.123697,53.890652],[9.123423,53.890631],[9.123263,53.890654],[9.122523,53.889676],[9.122454,53.889645],[9.120656,53.889464],[9.119767,53.889362],[9.119448,53.889272],[9.119357,53.8892],[9.11911,53.889054],[9.118891,53.888928],[9.118626,53.888835],[9.118326,53.888765],[9.118097,53.888739],[9.117674,53.888732],[9.117464,53.888739],[9.117199,53.888782],[9.116927,53.888852],[9.116206,53.889069],[9.1157,53.889217],[9.1157,53.889754],[9.115928,53.889694],[9.116591,53.889512],[9.11693,53.889409],[9.117513,53.88925],[9.117828,53.889225],[9.118041,53.889244],[9.118316,53.889348],[9.119198,53.88996],[9.119744,53.890329],[9.12066,53.890931],[9.121252,53.89132],[9.121442,53.891449],[9.122168,53.891849],[9.12244,53.892191],[9.122519,53.892277],[9.12266,53.892495],[9.122483,53.892593],[9.122542,53.892899],[9.122445,53.893288],[9.122949,53.893566],[9.123888,53.893434],[9.124028,53.893503],[9.124799,53.89327],[9.124723,53.893177],[9.12452,53.892781],[9.124353,53.892438],[9.124261,53.892409],[9.124062,53.892424],[9.123824,53.892444],[9.123555,53.892273],[9.123461,53.892138],[9.123442,53.892111],[9.123397,53.892056],[9.124109,53.891883],[9.124236,53.89176],[9.124011,53.891205],[9.124002,53.891208],[9.123834,53.890813]]]}},{"type":"Feature","properties":{"kind":"grass"},"geometry":{"type":"Polygon","coordinates":[[[9.131347,53.889241],[9.13146,53.889268],[9.131347,53.889415],[9.13154,53.889468],[9.132097,53.889612],[9.133059,53.889872],[9.133804,53.89007],[9.134976,53.890389],[9.135166,53.890446],[9.135542,53.890626],[9.135947,53.890811],[9.136737,53.891233],[9.138857,53.892363],[9.140044,53.892977],[9.140314,53.893118],[9.140971,53.893437],[9.141484,53.893707],[9.141686,53.893728],[9.141745,53.893689],[9.141397,53.893485],[9.140885,53.893217],[9.140398,53.892973],[9.139949,53.892725],[9.139607,53.892563],[9.139281,53.892389],[9.138005,53.891699],[9.136756,53.891037],[9.136122,53.890703],[9.135308,53.890317],[9.134367,53.889921],[9.133032,53.889387],[9.132333,53.889162],[9.131594,53.888959],[9.131568,53.888987],[9.131347,53.889241]]]}},{"type":"Feature","properties":{"kind":"allotments"},"geometry":{"type":"Polygon","coordinates":[[[9.15067,53.890211],[9.150398,53.890206],[9.150066,53.890222],[9.149812,53.890234],[9.149677,53.890299],[9.149927,53.890449],[9.149847,53.890516],[9.15134,53.891583],[9.152,53.892065],[9.152553,53.892458],[9.152601,53.892494],[9.152521,53.892531],[9.152414,53.892617],[9.153894,53.893792],[9.154094,53.893725],[9.154001,53.893471],[9.153926,53.893229],[9.153922,53.89317],[9.15353,53.892218],[9.153172,53.891323],[9.152716,53.890443],[9.151719,53.890909],[9.15067,53.890211]]]}},{"type":"Feature","properties":{"kind":"industrial"},"geometry":{"type":"Polygon","coordinates":[[[9.16367,53.894033],[9.163643,53.893111],[9.161399,53.893111],[9.161402,53.89301],[9.160479,53.893016],[9.160468,53.893702],[9.161439,53.893723],[9.161435,53.894049],[9.16367,53.894033]]]}},{"type":"Feature","properties":{"kind":"playground"},"geometry":{"type":"Polygon","coordinates":[[[9.115851,53.894202],[9.116219,53.894037],[9.116044,53.893895],[9.1157,53.894051],[9.1157,53.894084],[9.115851,53.894202]]]}},{"type":"Feature","properties":{"kind":"pitch"},"geometry":{"type":"Polygon","coordinates":[[[9.127816,53.902143],[9.127642,53.901996],[9.127325,53.902127],[9.127499,53.902274],[9.127816,53.902143]]]}},{"type":"Feature","properties":{"kind":"pitch"},"geometry":{"type":"Polygon","coordinates":[[[9.128099,53.902299],[9.128645,53.902081],[9.128453,53.901914],[9.127907,53.902133],[9.128099,53.902299]]]}},{"type":"Feature","properties":{"kind":"pitch"},"geometry":{"type":"Polygon","coordinates":[[[9.128316,53.902537],[9.128846,53.902331],[9.12865,53.902156],[9.12812,53.902362],[9.128316,53.902537]]]}},{"type":"Feature","properties":{"kind":"farmyard"},"geometry":{"type":"Polygon","coordinates":[[[9.117118,53.910993],[9.117114,53.910906],[9.117144,53.910841],[9.117214,53.910753],[9.1157,53.910161],[9.1157,53.911088],[9.115952,53.911246],[9.115873,53.9113],[9.117222,53.9113],[9.117118,53.910993]]]}},{"type":"Feature","properties":{"kind":"farmyard"},"geometry":{"type":"Polygon","coordinates":[[[9.119767,53.908727],[9.118833,53.908212],[9.118652,53.908331],[9.118345,53.908191],[9.117951,53.908503],[9.118179,53.908642],[9.117833,53.90888],[9.118684,53.909334],[9.119767,53.908727]]]}},{"type":"Feature","properties":{"kind":"playground"},"geometry":{"type":"Polygon","coordinates":[[[9.146737,53.896746],[9.146904,53.896555],[9.146969,53.89646],[9.146717,53.896326],[9.146625,53.896377],[9.146702,53.89644],[9.146543,53.896568],[9.146737,53.896746]]]}},{"type":"Feature","properties":{"kind":"industrial"},"geometry":{"type":"Polygon","coordinates":[[[9.171488,53.887588],[9.171566,53.887808],[9.171595,53.888694],[9.171505,53.889104],[9.171197,53.889444],[9.171089,53.889581],[9.170902,53.890214],[9.17087,53.890475],[9.171647,53.890683],[9.171782,53.890718],[9.17187,53.89068],[9.172085,53.890591],[9.17279,53.8904],[9.173249,53.890342],[9.173863,53.890335],[9.1767,53.890385],[9.1767,53.887614],[9.171488,53.887588]]]}},{"type":"Feature","properties":{"kind":"industrial"},"geometry":{"type":"Polygon","coordinates":[[[9.14251,53.910664],[9.142779,53.910209],[9.142796,53.910146],[9.142848,53.909943],[9.14282,53.909604],[9.142638,53.909265],[9.142359,53.908963],[9.141285,53.908091],[9.140053,53.907025],[9.140023,53.906999],[9.136647,53.90844],[9.136179,53.908639],[9.136044,53.908696],[9.13725,53.909724],[9.138286,53.910639],[9.138637,53.910834],[9.139169,53.910956],[9.13963,53.911201],[9.139958,53.9113],[9.142123,53.9113],[9.14251,53.910664]]]}},{"type":"Feature","properties":{"kind":"playground"},"geometry":{"type":"Polygon","coordinates":[[[9.146676,53.903091],[9.146246,53.903232],[9.146506,53.903433],[9.146778,53.903409],[9.146676,53.903091]]]}},{"type":"Feature","properties":{"kind":"industrial"},"geometry":{"type":"Polygon","coordinates":[[[9.157942,53.897351],[9.157358,53.896913],[9.157002,53.89708],[9.156688,53.89687],[9.156472,53.896913],[9.15645,53.896929],[9.156161,53.897059],[9.156161,53.897103],[9.158983,53.899154],[9.159162,53.899074],[9.159746,53.898826],[9.157942,53.897463],[9.157942,53.897351]]]}},{"type":"Feature","properties":{"kind":"industrial"},"geometry":{"type":"Polygon","coordinates":[[[9.155469,53.893782],[9.155475,53.893569],[9.155551,53.89331],[9.155596,53.893215],[9.15576,53.892945],[9.155929,53.892757],[9.155269,53.892573],[9.155102,53.892254],[9.154969,53.892253],[9.154707,53.892399],[9.154674,53.892738],[9.154955,53.893438],[9.154689,53.893486],[9.154571,53.893677],[9.154535,53.893803],[9.155469,53.893782]]]}},{"type":"Feature","properties":{"kind":"railway"},"geometry":{"type":"Polygon","coordinates":[[[9.160717,53.899514],[9.162391,53.900726],[9.163555,53.901511],[9.164198,53.901869],[9.164294,53.901923],[9.16539,53.902484],[9.165515,53.902451],[9.164752,53.901896],[9.163929,53.901275],[9.163594,53.900987],[9.1631,53.900587],[9.162766,53.90033],[9.162471,53.900068],[9.162325,53.899776],[9.161983,53.899636],[9.161649,53.899446],[9.160897,53.898956],[9.160614,53.898768],[9.160528,53.898801],[9.159557,53.898079],[9.158913,53.897636],[9.158488,53.897305],[9.158419,53.897307],[9.157682,53.896761],[9.157358,53.896913],[9.157942,53.897351],[9.157942,53.897463],[9.159746,53.898826],[9.160717,53.899514]]]}},{"type":"Feature","properties":{"kind":"industrial"},"geometry":{"type":"Polygon","coordinates":[[[9.166239,53.894996],[9.166287,53.89452],[9.166192,53.894517],[9.165044,53.894491],[9.165026,53.894967],[9.166239,53.894996]]]}},{"type":"Feature","properties":{"kind":"residential"},"geometry":{"type":"Polygon","coordinates":[[[9.163344,53.898394],[9.164232,53.898398],[9.16422,53.89787],[9.163268,53.897857],[9.163344,53.898394]]]}},{"type":"Feature","properties":{"kind":"industrial"},"geometry":{"type":"Polygon","coordinates":[[[9.149817,53.892434],[9.1536,53.895208],[9.154495,53.895841],[9.154614,53.895759],[9.154917,53.895497],[9.155698,53.895766],[9.156034,53.89561],[9.155562,53.895243],[9.153505,53.893669],[9.151281,53.892057],[9.151068,53.891901],[9.149817,53.892434]]]}},{"type":"Feature","properties":{"kind":"pitch"},"geometry":{"type":"Polygon","coordinates":[[[9.159677,53.903971],[9.15896,53.903575],[9.157979,53.904192],[9.158696,53.904588],[9.159677,53.903971]]]}},{"type":"Feature","properties":{"kind":"pitch"},"geometry":{"type":"Polygon","coordinates":[[[9.158816,53.904824],[9.159233,53.905058],[9.15942,53.904943],[9.159003,53.904709],[9.158816,53.904824]]]}},{"type":"Feature","properties":{"kind":"pitch"},"geometry":{"type":"Polygon","coordinates":[[[9.159607,53.904828],[9.15919,53.904593],[9.159003,53.904709],[9.15942,53.904943],[9.159607,53.904828]]]}},{"type":"Feature","properties":{"kind":"meadow"},"geometry":{"type":"Polygon","coordinates":[[[9.158971,53.903425],[9.158824,53.903329],[9.158631,53.903192],[9.158406,53.90302],[9.157803,53.902628],[9.157129,53.90221],[9.156072,53.901629],[9.154665,53.902877],[9.155353,53.903103],[9.156497,53.90363],[9.157084,53.903919],[9.157722,53.904233],[9.158971,53.903425]]]}},{"type":"Feature","properties":{"kind":"residential"},"geometry":{"type":"Polygon","coordinates":[[[9.15554,53.9014],[9.154556,53.902045],[9.153654,53.902637],[9.154351,53.902993],[9.154665,53.902877],[9.156072,53.901629],[9.15554,53.9014]]]}},{"type":"Feature","properties":{"kind":"forest"},"geometry":{"type":"Polygon","coordinates":[[[9.157201,53.904522],[9.157084,53.903919],[9.156497,53.90363],[9.155353,53.903103],[9.154665,53.902877],[9.154351,53.902993],[9.157201,53.904522]]]}},{"type":"Feature","properties":{"kind":"meadow"},"geometry":{"type":"Polygon","coordinates":[[[9.161279,53.906322],[9.161375,53.906297],[9.162563,53.905445],[9.161735,53.905008],[9.160972,53.904745],[9.160796,53.904658],[9.159331,53.905637],[9.16099,53.906504],[9.161279,53.906322]]]}},{"type":"Feature","properties":{"kind":"industrial"},"geometry":{"type":"Polygon","coordinates":[[[9.162627,53.90553],[9.161494,53.906324],[9.161394,53.90666],[9.163117,53.907627],[9.164509,53.9067],[9.163797,53.90635],[9.163893,53.906204],[9.162627,53.90553]]]}},{"type":"Feature","properties":{"kind":"harbour"},"geometry":{"type":"Polygon","coordinates":[[[9.164554,53.906022],[9.16462,53.905958],[9.164565,53.905929],[9.163477,53.905376],[9.163417,53.905345],[9.161753,53.904495],[9.161681,53.904458],[9.15892,53.90299],[9.158731,53.903148],[9.158864,53.903267],[9.159295,53.903501],[9.159983,53.903855],[9.16017,53.904324],[9.160796,53.904658],[9.160972,53.904745],[9.161735,53.905008],[9.162563,53.905445],[9.162627,53.90553],[9.163893,53.906204],[9.164554,53.906022]]]}},{"type":"Feature","properties":{"kind":"harbour"},"geometry":{"type":"Polygon","coordinates":[[[9.152544,53.899683],[9.152323,53.899814],[9.152251,53.899787],[9.151913,53.899965],[9.152734,53.900374],[9.152382,53.900634],[9.15335,53.901186],[9.153216,53.901324],[9.154432,53.90197],[9.154568,53.901891],[9.155438,53.90134],[9.155601,53.901227],[9.152612,53.899642],[9.152544,53.899683]]]}},{"type":"Feature","properties":{"kind":"industrial"},"geometry":{"type":"Polygon","coordinates":[[[9.146315,53.898631],[9.146951,53.899007],[9.147895,53.899575],[9.14918,53.900274],[9.150572,53.901025],[9.152148,53.901842],[9.153491,53.902583],[9.154432,53.90197],[9.153216,53.901324],[9.15335,53.901186],[9.152382,53.900634],[9.152734,53.900374],[9.151913,53.899965],[9.152251,53.899787],[9.152323,53.899814],[9.152544,53.899683],[9.152612,53.899642],[9.152225,53.899437],[9.152162,53.89944],[9.151314,53.899988],[9.151139,53.899904],[9.151796,53.899496],[9.151156,53.899197],[9.150076,53.899853],[9.149826,53.899728],[9.14974,53.899793],[9.149152,53.899481],[9.148665,53.899212],[9.147995,53.898862],[9.148259,53.898416],[9.147839,53.898281],[9.147976,53.898054],[9.147795,53.898016],[9.147554,53.897827],[9.146694,53.897849],[9.146315,53.898631]]]}},{"type":"Feature","properties":{"kind":"playground"},"geometry":{"type":"Polygon","coordinates":[[[9.138981,53.894505],[9.139197,53.894143],[9.138985,53.894133],[9.138758,53.894133],[9.138525,53.894163],[9.138981,53.894505]]]}},{"type":"Feature","properties":{"kind":"forest"},"geometry":{"type":"Polygon","coordinates":[[[9.128272,53.889649],[9.127709,53.88973],[9.127529,53.889772],[9.127084,53.889751],[9.127202,53.889913],[9.127312,53.889969],[9.127494,53.889951],[9.127746,53.889885],[9.128772,53.889812],[9.129273,53.889786],[9.129747,53.889806],[9.129865,53.889879],[9.130108,53.890033],[9.130423,53.890266],[9.130989,53.890708],[9.130959,53.890913],[9.130881,53.891488],[9.13082,53.893026],[9.131499,53.892855],[9.131364,53.892428],[9.131857,53.892262],[9.131508,53.891786],[9.132016,53.891647],[9.13161,53.891115],[9.131956,53.891008],[9.131598,53.890449],[9.131901,53.890106],[9.131987,53.889738],[9.130999,53.8895],[9.130599,53.889412],[9.130503,53.889434],[9.130061,53.88957],[9.129902,53.889584],[9.129221,53.889576],[9.128272,53.889649]]]}},{"type":"Feature","properties":{"kind":"forest"},"geometry":{"type":"Polygon","coordinates":[[[9.127841,53.888571],[9.128861,53.888811],[9.128991,53.888533],[9.128625,53.888465],[9.127859,53.888322],[9.127625,53.88829],[9.127841,53.888571]]]}},{"type":"Feature","properties":{"kind":"grass"},"geometry":{"type":"Polygon","coordinates":[[[9.133765,53.902368],[9.132902,53.902694],[9.131433,53.903155],[9.13058,53.903525],[9.129932,53.903892],[9.129655,53.904022],[9.129349,53.90422],[9.129023,53.904501],[9.128776,53.90484],[9.128655,53.905101],[9.128352,53.905405],[9.128144,53.905477],[9.127794,53.905627],[9.128069,53.905835],[9.128167,53.905885],[9.128408,53.905666],[9.128704,53.905493],[9.128886,53.905467],[9.12921,53.90508],[9.129578,53.904829],[9.130187,53.904664],[9.130783,53.904621],[9.130316,53.904208],[9.131274,53.903908],[9.131984,53.903543],[9.132636,53.903198],[9.13339,53.902946],[9.133711,53.902795],[9.134068,53.902608],[9.133765,53.902368]]]}},{"type":"Feature","properties":{"kind":"residential"},"geometry":{"type":"Polygon","coordinates":[[[9.133711,53.902795],[9.13339,53.902946],[9.132636,53.903198],[9.131984,53.903543],[9.131274,53.903908],[9.130316,53.904208],[9.130783,53.904621],[9.130187,53.904664],[9.129578,53.904829],[9.12921,53.90508],[9.128886,53.905467],[9.128876,53.905661],[9.128882,53.905935],[9.129348,53.906406],[9.129583,53.906591],[9.129827,53.906765],[9.130182,53.906901],[9.130504,53.906954],[9.131047,53.906898],[9.131493,53.906673],[9.13221,53.906385],[9.132331,53.906495],[9.131158,53.906983],[9.131319,53.907108],[9.131503,53.907252],[9.131066,53.907427],[9.130914,53.907499],[9.130835,53.907553],[9.130812,53.907594],[9.130885,53.907759],[9.130972,53.907875],[9.131465,53.908284],[9.131736,53.908476],[9.131824,53.908549],[9.131913,53.908638],[9.131977,53.908662],[9.132391,53.908998],[9.132809,53.909063],[9.133177,53.909096],[9.133383,53.909124],[9.133594,53.909105],[9.133723,53.909113],[9.133459,53.909228],[9.133245,53.909323],[9.132974,53.90941],[9.132704,53.909458],[9.13248,53.909503],[9.132225,53.909547],[9.131898,53.909576],[9.131805,53.909601],[9.131868,53.909768],[9.131823,53.909789],[9.131712,53.90983],[9.131727,53.909917],[9.131739,53.909995],[9.131722,53.910063],[9.131804,53.910096],[9.131864,53.910136],[9.131882,53.910585],[9.131795,53.911202],[9.131827,53.9113],[9.139958,53.9113],[9.13963,53.911201],[9.139169,53.910956],[9.138637,53.910834],[9.138286,53.910639],[9.13725,53.909724],[9.136044,53.908696],[9.136179,53.908639],[9.136647,53.90844],[9.140023,53.906999],[9.140311,53.906883],[9.139614,53.906324],[9.139254,53.906068],[9.138696,53.905737],[9.138269,53.905551],[9.137734,53.905319],[9.137098,53.904775],[9.137026,53.904714],[9.13683,53.904547],[9.136559,53.904315],[9.136222,53.904092],[9.134214,53.902494],[9.134068,53.902608],[9.133711,53.902795]]]}},{"type":"Feature","properties":{"kind":"residential"},"geometry":{"type":"Polygon","coordinates":[[[9.120873,53.901207],[9.120771,53.901137],[9.120699,53.901072],[9.120573,53.900961],[9.120269,53.900688],[9.119872,53.900315],[9.119728,53.900314],[9.119408,53.899993],[9.119136,53.899898],[9.11925,53.899475],[9.119413,53.898865],[9.119512,53.898465],[9.119463,53.898298],[9.119276,53.898112],[9.11883,53.898002],[9.118854,53.897951],[9.119302,53.898018],[9.119689,53.898056],[9.11958,53.897669],[9.119444,53.8974],[9.119355,53.897239],[9.119246,53.897155],[9.118878,53.897073],[9.118845,53.897154],[9.118631,53.897131],[9.118514,53.897089],[9.118419,53.896978],[9.118484,53.896911],[9.11865,53.896826],[9.118467,53.896672],[9.117956,53.896238],[9.117534,53.89591],[9.117036,53.895688],[9.117354,53.895515],[9.118212,53.895932],[9.118778,53.896189],[9.119292,53.896326],[9.119163,53.896609],[9.119343,53.896691],[9.119644,53.89688],[9.120277,53.897904],[9.120408,53.89802],[9.120732,53.898097],[9.121131,53.898113],[9.121338,53.898095],[9.121413,53.898089],[9.121631,53.898071],[9.121769,53.898205],[9.121772,53.898299],[9.121725,53.898589],[9.121572,53.899064],[9.121668,53.899135],[9.122179,53.899548],[9.122128,53.899864],[9.122125,53.899989],[9.12248,53.90026],[9.12359,53.899804],[9.125485,53.899011],[9.126331,53.898665],[9.126607,53.898531],[9.126292,53.898246],[9.126515,53.898206],[9.126795,53.898141],[9.127275,53.898003],[9.127489,53.89796],[9.127939,53.897891],[9.128606,53.897791],[9.128741,53.897907],[9.129163,53.898293],[9.128938,53.898377],[9.128638,53.898497],[9.128562,53.898436],[9.128347,53.898262],[9.128014,53.898422],[9.127747,53.898568],[9.127494,53.898732],[9.127309,53.89884],[9.127491,53.898977],[9.128557,53.899787],[9.128673,53.899876],[9.129163,53.900264],[9.129246,53.900331],[9.129825,53.900086],[9.130413,53.89983],[9.130642,53.89973],[9.130356,53.899459],[9.130956,53.899224],[9.130671,53.898981],[9.130417,53.898775],[9.130333,53.898702],[9.130418,53.898674],[9.13001,53.898339],[9.130562,53.898116],[9.130917,53.89803],[9.131483,53.897918],[9.131542,53.897906],[9.131423,53.897471],[9.131634,53.89745],[9.131504,53.897259],[9.131343,53.89715],[9.130894,53.897004],[9.130519,53.896902],[9.129442,53.896864],[9.129122,53.896727],[9.127396,53.895724],[9.12657,53.895405],[9.126023,53.895178],[9.125599,53.895093],[9.125337,53.895137],[9.120822,53.894453],[9.120694,53.894361],[9.120841,53.894025],[9.12105,53.893634],[9.121322,53.89308],[9.122445,53.893288],[9.122542,53.892899],[9.122483,53.892593],[9.12266,53.892495],[9.122519,53.892277],[9.12244,53.892191],[9.122168,53.891849],[9.121442,53.891449],[9.121252,53.89132],[9.12066,53.890931],[9.119744,53.890329],[9.119198,53.88996],[9.118316,53.889348],[9.118041,53.889244],[9.117828,53.889225],[9.117513,53.88925],[9.11693,53.889409],[9.116591,53.889512],[9.115928,53.889694],[9.1157,53.889754],[9.1157,53.901249],[9.116407,53.901659],[9.116115,53.902516],[9.116568,53.902683],[9.117476,53.903214],[9.11829,53.902752],[9.118379,53.902663],[9.11979,53.901939],[9.121032,53.901318],[9.120873,53.901207]]]}},{"type":"Feature","properties":{"kind":"grass"},"geometry":{"type":"Polygon","coordinates":[[[9.1317,53.910133],[9.131718,53.91044],[9.131648,53.910815],[9.131567,53.911],[9.131525,53.911215],[9.131448,53.9113],[9.131827,53.9113],[9.131795,53.911202],[9.131882,53.910585],[9.131864,53.910136],[9.1317,53.910133]]]}},{"type":"Feature","properties":{"kind":"forest"},"geometry":{"type":"Polygon","coordinates":[[[9.128408,53.905666],[9.128167,53.905885],[9.12851,53.906131],[9.129013,53.906482],[9.129771,53.907],[9.130054,53.907132],[9.130337,53.907171],[9.130666,53.907148],[9.131038,53.907031],[9.131158,53.906983],[9.132331,53.906495],[9.13221,53.906385],[9.131493,53.906673],[9.131047,53.906898],[9.130504,53.906954],[9.130182,53.906901],[9.129827,53.906765],[9.129583,53.906591],[9.129348,53.906406],[9.128882,53.905935],[9.128876,53.905661],[9.128886,53.905467],[9.128704,53.905493],[9.128408,53.905666]]]}},{"type":"Feature","properties":{"kind":"forest"},"geometry":{"type":"Polygon","coordinates":[[[9.131525,53.911215],[9.131567,53.911],[9.131648,53.910815],[9.131718,53.91044],[9.1317,53.910133],[9.131562,53.910131],[9.131525,53.910197],[9.131397,53.910792],[9.131268,53.911108],[9.131144,53.9113],[9.131448,53.9113],[9.131525,53.911215]]]}},{"type":"Feature","properties":{"kind":"forest"},"geometry":{"type":"Polygon","coordinates":[[[9.129281,53.907387],[9.129376,53.907662],[9.129672,53.907618],[9.129939,53.907463],[9.12937,53.906971],[9.127723,53.905866],[9.1274,53.90603],[9.129281,53.907387]]]}},{"type":"Feature","properties":{"kind":"pitch"},"geometry":{"type":"Polygon","coordinates":[[[9.123911,53.906972],[9.124979,53.907652],[9.125732,53.907242],[9.124664,53.906562],[9.123911,53.906972]]]}},{"type":"Feature","properties":{"kind":"pitch"},"geometry":{"type":"Polygon","coordinates":[[[9.126822,53.906987],[9.12612,53.90737],[9.127071,53.907975],[9.127773,53.907592],[9.126822,53.906987]]]}},{"type":"Feature","properties":{"kind":"pitch"},"geometry":{"type":"Polygon","coordinates":[[[9.125997,53.907256],[9.126684,53.906877],[9.125862,53.90636],[9.125175,53.90674],[9.125997,53.907256]]]}},{"type":"Feature","properties":{"kind":"pitch"},"geometry":{"type":"Polygon","coordinates":[[[9.12865,53.907136],[9.12757,53.906418],[9.126812,53.906856],[9.127869,53.907543],[9.12865,53.907136]]]}},{"type":"Feature","properties":{"kind":"pitch"},"geometry":{"type":"Polygon","coordinates":[[[9.125122,53.907754],[9.126206,53.908445],[9.126962,53.908034],[9.125879,53.907342],[9.125122,53.907754]]]}},{"type":"Feature","properties":{"kind":"commercial"},"geometry":{"type":"Polygon","coordinates":[[[9.122544,53.902172],[9.121992,53.901825],[9.121928,53.90186],[9.121873,53.90189],[9.121505,53.902091],[9.122062,53.902469],[9.122328,53.902338],[9.12253,53.902239],[9.122544,53.902172]]]}},{"type":"Feature","properties":{"kind":"meadow"},"geometry":{"type":"Polygon","coordinates":[[[9.130726,53.908922],[9.130093,53.907905],[9.129861,53.907672],[9.129695,53.907742],[9.129632,53.907794],[9.129551,53.907815],[9.129337,53.907872],[9.129297,53.908088],[9.130726,53.908922]]]}},{"type":"Feature","properties":{"kind":"pitch"},"geometry":{"type":"Polygon","coordinates":[[[9.129083,53.900686],[9.128256,53.901026],[9.129174,53.901803],[9.130002,53.901464],[9.129083,53.900686]]]}},{"type":"Feature","properties":{"kind":"forest"},"geometry":{"type":"Polygon","coordinates":[[[9.121338,53.898095],[9.121131,53.898113],[9.120732,53.898097],[9.120408,53.89802],[9.120277,53.897904],[9.119644,53.89688],[9.119343,53.896691],[9.119262,53.896752],[9.119556,53.89709],[9.119809,53.897565],[9.119963,53.897971],[9.119981,53.898166],[9.119996,53.8986],[9.11997,53.899056],[9.120152,53.899062],[9.120144,53.899006],[9.120083,53.898525],[9.120201,53.898477],[9.120162,53.898321],[9.120149,53.898194],[9.120407,53.898179],[9.120417,53.898178],[9.120583,53.898194],[9.120591,53.898195],[9.121318,53.898217],[9.121338,53.898095]]]}},{"type":"Feature","properties":{"kind":"forest"},"geometry":{"type":"Polygon","coordinates":[[[9.119854,53.900052],[9.119657,53.899645],[9.119602,53.899267],[9.119653,53.898775],[9.119701,53.898481],[9.119708,53.898125],[9.119689,53.898056],[9.119302,53.898018],[9.118854,53.897951],[9.11883,53.898002],[9.119276,53.898112],[9.119463,53.898298],[9.119512,53.898465],[9.119413,53.898865],[9.11925,53.899475],[9.119136,53.899898],[9.119408,53.899993],[9.119728,53.900314],[9.119872,53.900315],[9.119934,53.900303],[9.120007,53.900284],[9.119854,53.900052]]]}},{"type":"Feature","properties":{"kind":"playground"},"geometry":{"type":"Polygon","coordinates":[[[9.1618,53.894529],[9.161956,53.894364],[9.161945,53.894159],[9.161548,53.894156],[9.161567,53.894529],[9.1618,53.894529]]]}},{"type":"Feature","properties":{"kind":"grassland"},"geometry":{"type":"Polygon","coordinates":[[[9.168685,53.903672],[9.168658,53.903351],[9.168663,53.902985],[9.168712,53.902607],[9.168843,53.901516],[9.167194,53.90142],[9.166062,53.901357],[9.166088,53.90158],[9.166128,53.901769],[9.166177,53.901934],[9.166291,53.902147],[9.166419,53.902314],[9.16656,53.902501],[9.16692,53.902852],[9.167285,53.903132],[9.167482,53.903246],[9.167812,53.903415],[9.168309,53.90367],[9.16873,53.903905],[9.168685,53.903672]]]}},{"type":"Feature","properties":{"kind":"scrub"},"geometry":{"type":"Polygon","coordinates":[[[9.159162,53.899074],[9.159454,53.899288],[9.159695,53.899328],[9.159749,53.899392],[9.159823,53.899544],[9.161312,53.900647],[9.162466,53.901499],[9.162999,53.901873],[9.163317,53.90206],[9.16345,53.902105],[9.163402,53.901936],[9.163476,53.901845],[9.163555,53.901511],[9.162391,53.900726],[9.160717,53.899514],[9.159746,53.898826],[9.159162,53.899074]]]}},{"type":"Feature","properties":{"kind":"scrub"},"geometry":{"type":"Polygon","coordinates":[[[9.165738,53.902598],[9.166034,53.902815],[9.166078,53.902565],[9.166018,53.902428],[9.165899,53.902314],[9.165617,53.902114],[9.165019,53.901683],[9.164915,53.901607],[9.164786,53.901516],[9.164675,53.901443],[9.164429,53.901265],[9.163964,53.900915],[9.16313,53.900302],[9.162877,53.900122],[9.162713,53.900017],[9.162669,53.899879],[9.16251,53.899638],[9.16196,53.899248],[9.161002,53.898584],[9.160867,53.898597],[9.161147,53.89883],[9.160897,53.898956],[9.161649,53.899446],[9.161983,53.899636],[9.162325,53.899776],[9.162471,53.900068],[9.162766,53.90033],[9.1631,53.900587],[9.163594,53.900987],[9.163929,53.901275],[9.164752,53.901896],[9.165515,53.902451],[9.165738,53.902598]]]}},{"type":"Feature","properties":{"kind":"grassland"},"geometry":{"type":"Polygon","coordinates":[[[9.162669,53.899879],[9.162713,53.900017],[9.162877,53.900122],[9.16313,53.900302],[9.163964,53.900915],[9.164429,53.901265],[9.164675,53.901443],[9.164786,53.901516],[9.164915,53.901607],[9.165019,53.901683],[9.165617,53.902114],[9.165827,53.902083],[9.165958,53.902074],[9.165867,53.901844],[9.165808,53.901522],[9.165789,53.901401],[9.165775,53.901205],[9.165781,53.901114],[9.165767,53.900932],[9.165771,53.900775],[9.164908,53.900788],[9.164888,53.900231],[9.16483,53.900217],[9.163786,53.900198],[9.16379,53.900446],[9.163497,53.900415],[9.163421,53.900365],[9.163491,53.900161],[9.16334,53.900123],[9.163138,53.90004],[9.162961,53.899925],[9.162821,53.899803],[9.162669,53.899879]]]}},{"type":"Feature","properties":{"kind":"construction"},"geometry":{"type":"Polygon","coordinates":[[[9.148101,53.893235],[9.143141,53.890368],[9.141988,53.889697],[9.142363,53.88921],[9.141172,53.888691],[9.140067,53.888236],[9.139752,53.888697],[9.139855,53.888813],[9.140003,53.88893],[9.140262,53.889061],[9.140635,53.889298],[9.140979,53.88945],[9.141339,53.889764],[9.141494,53.889852],[9.141572,53.889912],[9.141561,53.89],[9.141255,53.890381],[9.141258,53.890517],[9.142465,53.891167],[9.142806,53.891393],[9.143106,53.891551],[9.143975,53.891956],[9.145579,53.892797],[9.145512,53.893263],[9.147407,53.894328],[9.147869,53.893998],[9.147405,53.89357],[9.148101,53.893235]]]}},{"type":"Feature","properties":{"kind":"forest"},"geometry":{"type":"Polygon","coordinates":[[[9.148798,53.890931],[9.148516,53.890745],[9.148751,53.890612],[9.149055,53.890811],[9.149404,53.890657],[9.149693,53.890682],[9.150528,53.891281],[9.151495,53.892007],[9.152262,53.892571],[9.152553,53.892458],[9.152,53.892065],[9.15134,53.891583],[9.149847,53.890516],[9.149927,53.890449],[9.149677,53.890299],[9.149812,53.890234],[9.150066,53.890222],[9.150398,53.890206],[9.15067,53.890211],[9.15212,53.890206],[9.152542,53.890174],[9.152558,53.889954],[9.150713,53.889915],[9.150431,53.889842],[9.150045,53.889825],[9.150013,53.89011],[9.149809,53.890117],[9.149404,53.890127],[9.149028,53.889848],[9.148213,53.890703],[9.148391,53.890822],[9.148568,53.890934],[9.148623,53.890988],[9.148798,53.890931]]]}},{"type":"Feature","properties":{"kind":"residential"},"geometry":{"type":"Polygon","coordinates":[[[9.149404,53.890127],[9.149809,53.890117],[9.150013,53.89011],[9.150045,53.889825],[9.149192,53.889821],[9.149028,53.889848],[9.149404,53.890127]]]}},{"type":"Feature","properties":{"kind":"scrub"},"geometry":{"type":"Polygon","coordinates":[[[9.1157,53.894305],[9.1157,53.894341],[9.116203,53.894734],[9.116307,53.894754],[9.116414,53.894744],[9.116812,53.894567],[9.116187,53.894067],[9.115859,53.894216],[9.115887,53.894238],[9.116147,53.894122],[9.116706,53.894558],[9.116352,53.894707],[9.116274,53.894701],[9.115742,53.894286],[9.1157,53.894305]]]}},{"type":"Feature","properties":{"kind":"pitch"},"geometry":{"type":"Polygon","coordinates":[[[9.135305,53.900847],[9.134997,53.900567],[9.134761,53.900656],[9.135069,53.900937],[9.135305,53.900847]]]}},{"type":"Feature","properties":{"kind":"pitch"},"geometry":{"type":"Polygon","coordinates":[[[9.134864,53.900799],[9.134552,53.900525],[9.134313,53.90062],[9.134624,53.900894],[9.134864,53.900799]]]}},{"type":"Feature","properties":{"kind":"pitch"},"geometry":{"type":"Polygon","coordinates":[[[9.135184,53.90108],[9.134864,53.900799],[9.134624,53.900894],[9.134944,53.901175],[9.135184,53.90108]]]}},{"type":"Feature","properties":{"kind":"pitch"},"geometry":{"type":"Polygon","coordinates":[[[9.134529,53.901147],[9.134762,53.901052],[9.134439,53.900774],[9.134206,53.900868],[9.134529,53.901147]]]}},{"type":"Feature","properties":{"kind":"residential"},"geometry":{"type":"Polygon","coordinates":[[[9.118922,53.904068],[9.11939,53.90378],[9.121179,53.903787],[9.120566,53.903424],[9.121701,53.9029],[9.122583,53.902562],[9.122328,53.902338],[9.122062,53.902469],[9.121505,53.902091],[9.121873,53.90189],[9.121032,53.901318],[9.11979,53.901939],[9.118379,53.902663],[9.119254,53.903209],[9.11953,53.903066],[9.119636,53.903138],[9.120064,53.903144],[9.120188,53.903171],[9.120335,53.903099],[9.120361,53.903086],[9.120564,53.903219],[9.120577,53.903272],[9.120549,53.903315],[9.120406,53.903378],[9.120303,53.903411],[9.119373,53.903414],[9.119287,53.903417],[9.119226,53.903419],[9.11829,53.902752],[9.117476,53.903214],[9.118922,53.904068]]]}},{"type":"Feature","properties":{"kind":"wetland"},"geometry":{"type":"Polygon","coordinates":[[[9.124344,53.890819],[9.124465,53.891112],[9.124602,53.891568],[9.124728,53.892003],[9.124968,53.892001],[9.124943,53.891934],[9.124781,53.891538],[9.124611,53.891052],[9.124485,53.890636],[9.124466,53.890439],[9.124231,53.89052],[9.124344,53.890819]]]}},{"type":"Feature","properties":{"kind":"wetland"},"geometry":{"type":"Polygon","coordinates":[[[9.123834,53.890651],[9.123697,53.890652],[9.123834,53.890813],[9.124011,53.891205],[9.124236,53.89176],[9.124109,53.891883],[9.123397,53.892056],[9.123442,53.892111],[9.124172,53.891959],[9.124424,53.891862],[9.124309,53.891511],[9.124135,53.891045],[9.124001,53.890604],[9.123834,53.890651]]]}},{"type":"Feature","properties":{"kind":"wetland"},"geometry":{"type":"Polygon","coordinates":[[[9.124466,53.890439],[9.124569,53.890373],[9.124719,53.890228],[9.125004,53.889934],[9.125084,53.889659],[9.125401,53.889292],[9.125884,53.888685],[9.126428,53.888189],[9.126588,53.888025],[9.126632,53.887857],[9.126723,53.887707],[9.126746,53.887664],[9.125787,53.887593],[9.125724,53.887606],[9.12568,53.887695],[9.125513,53.887857],[9.125004,53.888062],[9.124349,53.888126],[9.1237,53.888069],[9.123405,53.888072],[9.123352,53.888242],[9.123684,53.88908],[9.123974,53.889782],[9.124231,53.89052],[9.124466,53.890439]]]}},{"type":"Feature","properties":{"kind":"wetland"},"geometry":{"type":"Polygon","coordinates":[[[9.116962,53.888646],[9.117434,53.888547],[9.117953,53.888548],[9.118189,53.888568],[9.118438,53.88859],[9.11892,53.888708],[9.119583,53.889086],[9.120065,53.889276],[9.121852,53.88946],[9.122348,53.889511],[9.122568,53.889538],[9.123423,53.890631],[9.123697,53.890652],[9.123834,53.890651],[9.124001,53.890604],[9.123867,53.89024],[9.123748,53.889871],[9.123464,53.889257],[9.123035,53.888369],[9.122724,53.888233],[9.12244,53.888122],[9.121828,53.888065],[9.121227,53.888103],[9.120374,53.888189],[9.119757,53.888129],[9.119055,53.888081],[9.118465,53.887971],[9.117665,53.888138],[9.117386,53.88811],[9.116834,53.888021],[9.1157,53.888056],[9.1157,53.889015],[9.116962,53.888646]]]}},{"type":"Feature","properties":{"kind":"grass"},"geometry":{"type":"Polygon","coordinates":[[[9.12583,53.891176],[9.125446,53.890856],[9.125342,53.890731],[9.125355,53.890602],[9.125433,53.890506],[9.126028,53.889886],[9.126863,53.888824],[9.127156,53.888416],[9.127242,53.888363],[9.127625,53.88829],[9.127859,53.888322],[9.128625,53.888465],[9.128991,53.888533],[9.129061,53.888547],[9.129585,53.888649],[9.129645,53.88863],[9.129744,53.888498],[9.129766,53.888465],[9.128622,53.8882],[9.127784,53.888047],[9.127202,53.887945],[9.127131,53.887938],[9.126987,53.887953],[9.126894,53.888107],[9.126752,53.888301],[9.126128,53.888914],[9.125495,53.889735],[9.125666,53.889768],[9.125385,53.890146],[9.125224,53.890399],[9.125323,53.890445],[9.125232,53.890599],[9.125218,53.890776],[9.125334,53.890942],[9.125425,53.891105],[9.125945,53.891578],[9.125766,53.891635],[9.125497,53.891745],[9.125417,53.891524],[9.125272,53.891382],[9.124966,53.891077],[9.124775,53.89109],[9.124889,53.891469],[9.12498,53.891817],[9.125022,53.892001],[9.125276,53.89286],[9.12539,53.893084],[9.12557,53.893316],[9.125639,53.893296],[9.126173,53.893105],[9.126361,53.893054],[9.1266,53.893287],[9.126815,53.89356],[9.126506,53.893661],[9.127461,53.894477],[9.128196,53.894151],[9.128507,53.894436],[9.127793,53.894764],[9.127836,53.894995],[9.128684,53.894597],[9.128829,53.894729],[9.129129,53.894565],[9.129124,53.894445],[9.128847,53.894289],[9.129049,53.894183],[9.128634,53.89378],[9.127903,53.893128],[9.126195,53.89151],[9.12583,53.891176]]]}},{"type":"Feature","properties":{"kind":"grass"},"geometry":{"type":"Polygon","coordinates":[[[9.129744,53.888498],[9.131568,53.888987],[9.131594,53.888959],[9.130744,53.888721],[9.129766,53.888465],[9.129744,53.888498]]]}},{"type":"Feature","properties":{"kind":"grass"},"geometry":{"type":"Polygon","coordinates":[[[9.132069,53.909313],[9.132102,53.909324],[9.132149,53.909342],[9.132212,53.90936],[9.132286,53.909374],[9.132364,53.909381],[9.132432,53.909369],[9.132463,53.90935],[9.13251,53.909324],[9.132542,53.909298],[9.132551,53.909271],[9.132553,53.90924],[9.132542,53.909207],[9.132515,53.909178],[9.132475,53.909162],[9.132436,53.909147],[9.132377,53.909137],[9.132326,53.909147],[9.132283,53.909153],[9.132239,53.909166],[9.132189,53.909178],[9.132148,53.909182],[9.132105,53.909174],[9.132069,53.909162],[9.132029,53.909167],[9.131975,53.909189],[9.131959,53.909211],[9.131956,53.909237],[9.131964,53.909258],[9.131998,53.909281],[9.132035,53.909305],[9.132069,53.909313]]]}},{"type":"Feature","properties":{"kind":"grass"},"geometry":{"type":"Polygon","coordinates":[[[9.131923,53.909153],[9.131959,53.909138],[9.131986,53.909118],[9.13201,53.909085],[9.132014,53.909059],[9.131978,53.909029],[9.131941,53.908994],[9.131928,53.908976],[9.131912,53.908957],[9.131886,53.90894],[9.131846,53.90893],[9.13179,53.908933],[9.131731,53.908934],[9.131693,53.90895],[9.131665,53.908982],[9.131649,53.909018],[9.131642,53.909053],[9.131649,53.909089],[9.131664,53.909115],[9.131685,53.909142],[9.131713,53.909166],[9.13175,53.909177],[9.131803,53.909189],[9.131854,53.909183],[9.13188,53.909173],[9.131894,53.909163],[9.131923,53.909153]]]}},{"type":"Feature","properties":{"kind":"playground"},"geometry":{"type":"Polygon","coordinates":[[[9.127273,53.890187],[9.12737,53.889995],[9.127184,53.889994],[9.127109,53.890176],[9.127273,53.890187]]]}},{"type":"Feature","properties":{"kind":"pitch"},"geometry":{"type":"Polygon","coordinates":[[[9.144042,53.910863],[9.144077,53.910854],[9.144136,53.910775],[9.144318,53.910505],[9.1439,53.910418],[9.143699,53.91073],[9.143688,53.910756],[9.143693,53.910779],[9.143712,53.910795],[9.143747,53.910806],[9.144004,53.91086],[9.144042,53.910863]]]}},{"type":"Feature","properties":{"kind":"meadow"},"geometry":{"type":"Polygon","coordinates":[[[9.143018,53.910504],[9.143367,53.910576],[9.143472,53.910397],[9.143111,53.910319],[9.143018,53.910504]]]}},{"type":"Feature","properties":{"kind":"scrub"},"geometry":{"type":"Polygon","coordinates":[[[9.120269,53.900688],[9.120573,53.900961],[9.120699,53.901072],[9.120771,53.901137],[9.120873,53.901207],[9.121032,53.901318],[9.121873,53.90189],[9.121928,53.90186],[9.121992,53.901825],[9.120923,53.90111],[9.120575,53.900852],[9.120324,53.900623],[9.120007,53.900284],[9.119934,53.900303],[9.119872,53.900315],[9.120269,53.900688]]]}},{"type":"Feature","properties":{"kind":"meadow"},"geometry":{"type":"Polygon","coordinates":[[[9.170375,53.896007],[9.170633,53.895158],[9.17072,53.894733],[9.170808,53.894349],[9.171102,53.89315],[9.171195,53.891748],[9.171267,53.891301],[9.171331,53.890999],[9.170824,53.891551],[9.170733,53.891774],[9.170575,53.892785],[9.170384,53.89378],[9.170167,53.894982],[9.169989,53.896],[9.170013,53.895995],[9.170375,53.896007]]]}},{"type":"Feature","properties":{"kind":"scrub"},"geometry":{"type":"Polygon","coordinates":[[[9.17132,53.896045],[9.17132,53.895943],[9.170982,53.895687],[9.171175,53.894505],[9.17161,53.892096],[9.171744,53.890996],[9.171787,53.890765],[9.171782,53.890718],[9.171717,53.890746],[9.171331,53.890999],[9.171267,53.891301],[9.171195,53.891748],[9.171102,53.89315],[9.170808,53.894349],[9.17072,53.894733],[9.170633,53.895158],[9.170375,53.896007],[9.17132,53.896045]]]}},{"type":"Feature","properties":{"kind":"grassland"},"geometry":{"type":"Polygon","coordinates":[[[9.170532,53.892199],[9.170671,53.891486],[9.17087,53.890475],[9.170902,53.890214],[9.169536,53.890808],[9.16815,53.891426],[9.167589,53.89178],[9.167198,53.892136],[9.167324,53.892166],[9.170204,53.892207],[9.170532,53.892199]]]}},{"type":"Feature","properties":{"kind":"grassland"},"geometry":{"type":"Polygon","coordinates":[[[9.166932,53.89214],[9.167168,53.891862],[9.167887,53.891363],[9.169974,53.89044],[9.170416,53.890272],[9.170655,53.890127],[9.170513,53.890041],[9.170135,53.890207],[9.167839,53.890184],[9.167321,53.890242],[9.165696,53.890312],[9.165038,53.890533],[9.164936,53.890708],[9.165387,53.890661],[9.165392,53.89148],[9.165313,53.891773],[9.165264,53.891922],[9.165323,53.89214],[9.166932,53.89214]]]}},{"type":"Feature","properties":{"kind":"grassland"},"geometry":{"type":"Polygon","coordinates":[[[9.152716,53.890443],[9.152542,53.890174],[9.15212,53.890206],[9.15067,53.890211],[9.151719,53.890909],[9.152716,53.890443]]]}},{"type":"Feature","properties":{"kind":"meadow"},"geometry":{"type":"Polygon","coordinates":[[[9.146204,53.88951],[9.146759,53.889455],[9.147381,53.88943],[9.14806,53.889436],[9.148084,53.88973],[9.148736,53.889739],[9.148937,53.889744],[9.149028,53.889848],[9.149192,53.889821],[9.150045,53.889825],[9.150431,53.889842],[9.150713,53.889915],[9.152558,53.889954],[9.152816,53.889957],[9.155613,53.889999],[9.156418,53.890018],[9.159228,53.890036],[9.162565,53.890079],[9.162698,53.890218],[9.163633,53.890163],[9.16477,53.890176],[9.164778,53.890245],[9.164794,53.890519],[9.165038,53.890533],[9.165696,53.890312],[9.167321,53.890242],[9.167839,53.890184],[9.170135,53.890207],[9.170513,53.890041],[9.170569,53.889929],[9.170658,53.889871],[9.171089,53.889581],[9.171197,53.889444],[9.171505,53.889104],[9.171595,53.888694],[9.171566,53.887808],[9.171503,53.887683],[9.171411,53.887724],[9.171379,53.888674],[9.171285,53.888987],[9.170786,53.889428],[9.170355,53.88961],[9.169059,53.88958],[9.16502,53.889404],[9.163799,53.889325],[9.159194,53.889041],[9.152995,53.888925],[9.152775,53.889096],[9.152641,53.889093],[9.152534,53.888928],[9.144788,53.888808],[9.144729,53.888891],[9.145171,53.889185],[9.145952,53.889605],[9.146204,53.88951]]]}},{"type":"Feature","properties":{"kind":"grassland"},"geometry":{"type":"Polygon","coordinates":[[[9.147446,53.891224],[9.147666,53.891132],[9.147811,53.891177],[9.147887,53.891013],[9.148269,53.890896],[9.148391,53.890822],[9.148213,53.890703],[9.149028,53.889848],[9.148937,53.889744],[9.148736,53.889739],[9.148677,53.88992],[9.147998,53.889928],[9.147221,53.889943],[9.147639,53.890282],[9.147322,53.890452],[9.147438,53.890596],[9.147655,53.890729],[9.147553,53.890773],[9.147663,53.890877],[9.147632,53.890938],[9.147605,53.890966],[9.14756,53.891013],[9.147443,53.891047],[9.146883,53.890552],[9.146116,53.889904],[9.146005,53.889798],[9.146043,53.889762],[9.145866,53.889652],[9.145952,53.889605],[9.145171,53.889185],[9.144729,53.888891],[9.144458,53.88884],[9.144785,53.889104],[9.145383,53.889577],[9.146199,53.890307],[9.14652,53.890571],[9.146834,53.890731],[9.146703,53.890802],[9.147296,53.891301],[9.147446,53.891224]]]}},{"type":"Feature","properties":{"kind":"scrub"},"geometry":{"type":"Polygon","coordinates":[[[9.165264,53.891922],[9.165313,53.891773],[9.165392,53.89148],[9.165387,53.890661],[9.164936,53.890708],[9.164877,53.891445],[9.164909,53.89208],[9.165323,53.89214],[9.165264,53.891922]]]}},{"type":"Feature","properties":{"kind":"forest"},"geometry":{"type":"Polygon","coordinates":[[[9.165202,53.89557],[9.165273,53.895637],[9.165742,53.895679],[9.165934,53.895542],[9.165446,53.89549],[9.165202,53.895512],[9.16499,53.895428],[9.165026,53.894967],[9.165044,53.894491],[9.165232,53.893678],[9.165323,53.89214],[9.164909,53.89208],[9.164876,53.892623],[9.164788,53.894107],[9.164642,53.895501],[9.16469,53.895525],[9.165202,53.89557]]]}},{"type":"Feature","properties":{"kind":"grassland"},"geometry":{"type":"Polygon","coordinates":[[[9.168268,53.895839],[9.169317,53.895877],[9.169448,53.895226],[9.169899,53.895261],[9.169984,53.894556],[9.170204,53.892207],[9.167324,53.892166],[9.167034,53.892507],[9.16676,53.893042],[9.166727,53.89405],[9.167794,53.894095],[9.167755,53.894406],[9.167735,53.894566],[9.16768,53.89501],[9.166723,53.894973],[9.166653,53.895159],[9.166573,53.895472],[9.166739,53.895564],[9.166776,53.895675],[9.168268,53.895839]]]}},{"type":"Feature","properties":{"kind":"construction"},"geometry":{"type":"Polygon","coordinates":[[[9.166192,53.894517],[9.166322,53.894477],[9.166363,53.893705],[9.166476,53.89294],[9.166589,53.89258],[9.166932,53.89214],[9.165323,53.89214],[9.165232,53.893678],[9.165044,53.894491],[9.166192,53.894517]]]}},{"type":"Feature","properties":{"kind":"forest"},"geometry":{"type":"Polygon","coordinates":[[[9.136138,53.899446],[9.135443,53.898859],[9.135266,53.898711],[9.135051,53.898488],[9.134563,53.898026],[9.133901,53.897673],[9.133461,53.897545],[9.133228,53.897537],[9.133071,53.897538],[9.133092,53.897588],[9.133278,53.897606],[9.133761,53.897758],[9.134135,53.89796],[9.134512,53.89828],[9.135553,53.899212],[9.13599,53.899561],[9.136138,53.899446]]]}},{"type":"Feature","properties":{"kind":"park"},"geometry":{"type":"Polygon","coordinates":[[[9.143575,53.894224],[9.143774,53.894331],[9.144174,53.894532],[9.144064,53.89465],[9.144393,53.894889],[9.145432,53.895496],[9.145635,53.895365],[9.145761,53.895251],[9.145641,53.895147],[9.145649,53.895055],[9.144782,53.894595],[9.143811,53.89405],[9.143726,53.894075],[9.14364,53.894033],[9.14349,53.89414],[9.143575,53.894224]]]}},{"type":"Feature","properties":{"kind":"forest"},"geometry":{"type":"Polygon","coordinates":[[[9.138634,53.902061],[9.138672,53.902028],[9.138528,53.901671],[9.138131,53.901307],[9.137637,53.900865],[9.136819,53.900094],[9.136639,53.900175],[9.13684,53.9004],[9.137439,53.900951],[9.138583,53.901956],[9.138634,53.902061]]]}},{"type":"Feature","properties":{"kind":"forest"},"geometry":{"type":"Polygon","coordinates":[[[9.136186,53.899718],[9.13646,53.900003],[9.136639,53.899912],[9.136399,53.899679],[9.13619,53.899564],[9.13613,53.899566],[9.136045,53.899607],[9.136186,53.899718]]]}},{"type":"Feature","properties":{"kind":"pitch"},"geometry":{"type":"Polygon","coordinates":[[[9.127112,53.902268],[9.127009,53.902173],[9.126767,53.902265],[9.126871,53.90236],[9.127112,53.902268]]]}},{"type":"Feature","properties":{"kind":"grass"},"geometry":{"type":"Polygon","coordinates":[[[9.121322,53.89308],[9.12105,53.893634],[9.120841,53.894025],[9.120694,53.894361],[9.120822,53.894453],[9.125337,53.895137],[9.125599,53.895093],[9.126023,53.895178],[9.126018,53.89514],[9.125626,53.894979],[9.125374,53.894916],[9.125068,53.894878],[9.125256,53.894745],[9.125444,53.894628],[9.125605,53.894527],[9.125936,53.894497],[9.1255,53.894021],[9.125249,53.893764],[9.12489,53.89338],[9.124799,53.89327],[9.124028,53.893503],[9.123888,53.893434],[9.122949,53.893566],[9.122445,53.893288],[9.121322,53.89308]]]}},{"type":"Feature","properties":{"kind":"grassland"},"geometry":{"type":"Polygon","coordinates":[[[9.155613,53.889999],[9.152816,53.889957],[9.153022,53.890402],[9.152716,53.890443],[9.153172,53.891323],[9.15353,53.892218],[9.15491,53.892101],[9.155058,53.892071],[9.155149,53.89203],[9.154889,53.891919],[9.154744,53.891717],[9.154648,53.891303],[9.154578,53.891006],[9.154551,53.890879],[9.154664,53.890822],[9.156332,53.890253],[9.156418,53.890018],[9.155613,53.889999]]]}},{"type":"Feature","properties":{"kind":"construction"},"geometry":{"type":"Polygon","coordinates":[[[9.120531,53.905026],[9.122017,53.904957],[9.12216,53.905026],[9.12276,53.904989],[9.122874,53.904951],[9.122768,53.904838],[9.123113,53.904728],[9.123276,53.904744],[9.124553,53.90454],[9.125103,53.904302],[9.123761,53.903412],[9.122583,53.902562],[9.121701,53.9029],[9.120566,53.903424],[9.121179,53.903787],[9.11939,53.90378],[9.118922,53.904068],[9.120531,53.905026]]]}},{"type":"Feature","properties":{"kind":"wood"},"geometry":{"type":"Polygon","coordinates":[[[9.149047,53.892205],[9.148835,53.892036],[9.148546,53.891835],[9.148355,53.891908],[9.148876,53.892291],[9.149047,53.892205]]]}},{"type":"Feature","properties":{"kind":"wood"},"geometry":{"type":"Polygon","coordinates":[[[9.150603,53.89166],[9.15056,53.891582],[9.150415,53.891538],[9.150227,53.891619],[9.150206,53.891687],[9.15034,53.891774],[9.150603,53.89166]]]}},{"type":"Feature","properties":{"kind":"wood"},"geometry":{"type":"Polygon","coordinates":[[[9.14979,53.891568],[9.149964,53.891434],[9.149806,53.891339],[9.149492,53.891428],[9.149318,53.891567],[9.149401,53.891632],[9.149624,53.891636],[9.14979,53.891568]]]}},{"type":"Feature","properties":{"kind":"wood"},"geometry":{"type":"Polygon","coordinates":[[[9.148921,53.891107],[9.14912,53.8911],[9.149299,53.891089],[9.149468,53.891092],[9.1496,53.891081],[9.149954,53.890972],[9.149753,53.890838],[9.149586,53.890772],[9.149447,53.890759],[9.149299,53.890781],[9.148629,53.891056],[9.148334,53.89117],[9.14853,53.891304],[9.148921,53.891107]]]}},{"type":"Feature","properties":{"kind":"wood"},"geometry":{"type":"Polygon","coordinates":[[[9.143572,53.894724],[9.144079,53.895015],[9.144423,53.895232],[9.144635,53.89517],[9.144469,53.895084],[9.143852,53.894679],[9.143256,53.894379],[9.142685,53.894078],[9.142513,53.894013],[9.142453,53.894047],[9.143572,53.894724]]]}},{"type":"Feature","properties":{"kind":"pitch"},"geometry":{"type":"Polygon","coordinates":[[[9.130058,53.889201],[9.129919,53.889394],[9.130058,53.889428],[9.130209,53.889465],[9.13034,53.889273],[9.130218,53.889242],[9.130058,53.889201]]]}},{"type":"Feature","properties":{"kind":"scrub"},"geometry":{"type":"Polygon","coordinates":[[[9.16539,53.902484],[9.164294,53.901923],[9.164198,53.901869],[9.164022,53.902008],[9.163934,53.902104],[9.164064,53.902194],[9.164113,53.902214],[9.164143,53.902318],[9.164228,53.902362],[9.164539,53.902495],[9.164959,53.902694],[9.165425,53.902944],[9.165301,53.903027],[9.164984,53.902899],[9.164872,53.902908],[9.164992,53.902979],[9.166287,53.90367],[9.166514,53.903561],[9.166841,53.903725],[9.167318,53.903864],[9.167372,53.903839],[9.166433,53.903245],[9.166079,53.902985],[9.165621,53.902658],[9.16539,53.902484]]]}},{"type":"Feature","properties":{"kind":"residential"},"geometry":{"type":"Polygon","coordinates":[[[9.125964,53.903728],[9.126212,53.903932],[9.128144,53.905477],[9.128352,53.905405],[9.128655,53.905101],[9.128776,53.90484],[9.129023,53.904501],[9.129349,53.90422],[9.129655,53.904022],[9.129932,53.903892],[9.13058,53.903525],[9.131433,53.903155],[9.132902,53.902694],[9.133765,53.902368],[9.133905,53.90226],[9.132573,53.901144],[9.13255,53.901125],[9.1323,53.900917],[9.131592,53.900309],[9.131258,53.900012],[9.131314,53.899993],[9.131954,53.899731],[9.131693,53.899517],[9.131018,53.899816],[9.131136,53.899931],[9.130889,53.90003],[9.130473,53.900193],[9.130452,53.900209],[9.130957,53.900627],[9.130685,53.900738],[9.130868,53.900907],[9.130229,53.901167],[9.130678,53.901526],[9.130893,53.901694],[9.130001,53.902077],[9.129249,53.902375],[9.129207,53.902427],[9.129095,53.902932],[9.129005,53.903054],[9.12878,53.903127],[9.128308,53.902756],[9.127353,53.903168],[9.126854,53.903346],[9.125964,53.903728]]]}},{"type":"Feature","properties":{"kind":"commercial"},"geometry":{"type":"Polygon","coordinates":[[[9.122964,53.900928],[9.121785,53.899937],[9.121239,53.900169],[9.120849,53.899846],[9.120168,53.900108],[9.120317,53.900304],[9.120573,53.900593],[9.120747,53.900744],[9.121335,53.901182],[9.12172,53.901446],[9.122964,53.900928]]]}},{"type":"Feature","properties":{"kind":"education"},"geometry":{"type":"Polygon","coordinates":[[[9.125884,53.90245],[9.126161,53.9024],[9.126466,53.902296],[9.126619,53.902496],[9.12688,53.902432],[9.127394,53.902283],[9.127216,53.90209],[9.128468,53.901578],[9.12849,53.90157],[9.12846,53.901544],[9.128393,53.901482],[9.128005,53.901184],[9.128021,53.901118],[9.127961,53.901016],[9.127935,53.900952],[9.127954,53.900931],[9.128108,53.900787],[9.12818,53.900679],[9.128284,53.900599],[9.129163,53.900264],[9.128673,53.899876],[9.128557,53.899787],[9.127316,53.900302],[9.127204,53.900185],[9.12709,53.900217],[9.125593,53.900819],[9.125428,53.900949],[9.125213,53.901319],[9.125217,53.901458],[9.125037,53.901571],[9.124351,53.901732],[9.124622,53.901989],[9.124958,53.90212],[9.125213,53.902211],[9.125413,53.902214],[9.125613,53.902239],[9.125752,53.902301],[9.125884,53.90245]]]}},{"type":"Feature","properties":{"kind":"industrial"},"geometry":{"type":"Polygon","coordinates":[[[9.169159,53.910267],[9.169106,53.910238],[9.169048,53.910207],[9.167487,53.90937],[9.167407,53.909325],[9.167311,53.909272],[9.166218,53.908667],[9.166119,53.908611],[9.166044,53.90857],[9.165547,53.908301],[9.165534,53.90831],[9.165138,53.908568],[9.165198,53.908603],[9.165234,53.90862],[9.165196,53.90867],[9.165637,53.908899],[9.166008,53.909092],[9.166093,53.909076],[9.166126,53.909093],[9.166526,53.909296],[9.166546,53.909285],[9.166585,53.909304],[9.166624,53.909325],[9.166567,53.909402],[9.169124,53.910717],[9.170264,53.9113],[9.170383,53.9113],[9.170437,53.911262],[9.170506,53.9113],[9.171055,53.9113],[9.169159,53.910267]]]}},{"type":"Feature","properties":{"kind":"retail"},"geometry":{"type":"Polygon","coordinates":[[[9.122587,53.900391],[9.124054,53.901595],[9.124157,53.901636],[9.124722,53.901383],[9.124887,53.901279],[9.124949,53.901214],[9.125075,53.901077],[9.125209,53.900886],[9.125349,53.900733],[9.125823,53.900508],[9.126365,53.900302],[9.127097,53.900013],[9.127398,53.900139],[9.127977,53.899898],[9.12809,53.899832],[9.128143,53.899735],[9.128093,53.899627],[9.127457,53.899141],[9.127134,53.89891],[9.127309,53.89884],[9.127747,53.898568],[9.128014,53.898422],[9.128347,53.898262],[9.128562,53.898436],[9.128932,53.898275],[9.128844,53.898185],[9.128649,53.898021],[9.128545,53.897957],[9.128371,53.897962],[9.128031,53.898002],[9.127251,53.898148],[9.126605,53.898329],[9.126872,53.898534],[9.126607,53.898647],[9.12588,53.898936],[9.125214,53.899226],[9.122631,53.900306],[9.12256,53.900365],[9.122587,53.900391]]]}},{"type":"Feature","properties":{"kind":"grassland"},"geometry":{"type":"Polygon","coordinates":[[[9.127063,53.905725],[9.127434,53.905668],[9.125362,53.904193],[9.123174,53.902704],[9.122917,53.902575],[9.122657,53.902568],[9.123346,53.903071],[9.12348,53.903008],[9.125272,53.904227],[9.125149,53.904284],[9.125103,53.904302],[9.127063,53.905725]]]}},{"type":"Feature","properties":{"kind":"playground"},"geometry":{"type":"Polygon","coordinates":[[[9.119636,53.903138],[9.120064,53.903144],[9.120188,53.903171],[9.120335,53.903099],[9.120139,53.902957],[9.120116,53.902944],[9.119973,53.902845],[9.11953,53.903066],[9.119636,53.903138]]]}},{"type":"Feature","properties":{"kind":"grass"},"geometry":{"type":"Polygon","coordinates":[[[9.167755,53.894406],[9.167794,53.894095],[9.166727,53.89405],[9.166595,53.894044],[9.16659,53.89413],[9.166784,53.894139],[9.16679,53.894088],[9.166951,53.894096],[9.166943,53.894147],[9.167013,53.894151],[9.167018,53.89412],[9.167297,53.894131],[9.167293,53.894163],[9.167442,53.89417],[9.167472,53.894181],[9.167495,53.894196],[9.167507,53.894214],[9.167484,53.894395],[9.167755,53.894406]]]}},{"type":"Feature","properties":{"kind":"grass"},"geometry":{"type":"Polygon","coordinates":[[[9.1667,53.894847],[9.166707,53.894798],[9.166938,53.894808],[9.166944,53.894761],[9.166871,53.894758],[9.166887,53.89463],[9.16664,53.894616],[9.166605,53.89463],[9.166595,53.894805],[9.166536,53.894802],[9.166531,53.89484],[9.1667,53.894847]]]}},{"type":"Feature","properties":{"kind":"grass"},"geometry":{"type":"Polygon","coordinates":[[[9.166637,53.894881],[9.166527,53.894875],[9.166522,53.894918],[9.1666,53.894921],[9.166593,53.894967],[9.166723,53.894973],[9.16768,53.89501],[9.167735,53.894566],[9.167467,53.894559],[9.167426,53.894888],[9.16741,53.894908],[9.167378,53.89492],[9.167346,53.894927],[9.167322,53.894925],[9.167316,53.894976],[9.16663,53.894947],[9.166636,53.894895],[9.166637,53.894881]]]}},{"type":"Feature","properties":{"kind":"construction"},"geometry":{"type":"Polygon","coordinates":[[[9.171623,53.890366],[9.171567,53.890391],[9.171537,53.890367],[9.171356,53.890446],[9.171437,53.89051],[9.171502,53.890482],[9.171693,53.890633],[9.171865,53.890558],[9.171623,53.890366]]]}},{"type":"Feature","properties":{"kind":"construction"},"geometry":{"type":"Polygon","coordinates":[[[9.176674,53.891783],[9.176685,53.890892],[9.175183,53.890873],[9.175118,53.891764],[9.176674,53.891783]]]}},{"type":"Feature","properties":{"kind":"construction"},"geometry":{"type":"Polygon","coordinates":[[[9.172035,53.891006],[9.173005,53.891017],[9.173049,53.890745],[9.172157,53.890731],[9.172014,53.890735],[9.171787,53.890765],[9.171744,53.890996],[9.172035,53.891006]]]}},{"type":"Feature","properties":{"kind":"grassland"},"geometry":{"type":"Polygon","coordinates":[[[9.175811,53.907299],[9.175518,53.907198],[9.175227,53.907088],[9.175052,53.90743],[9.176511,53.907845],[9.1767,53.907924],[9.1767,53.907568],[9.175811,53.907299]]]}},{"type":"Feature","properties":{"kind":"grassland"},"geometry":{"type":"Polygon","coordinates":[[[9.125272,53.904227],[9.12348,53.903008],[9.123346,53.903071],[9.125149,53.904284],[9.125272,53.904227]]]}},{"type":"Feature","properties":{"kind":"industrial"},"geometry":{"type":"Polygon","coordinates":[[[9.156086,53.903676],[9.15584,53.903537],[9.155694,53.903626],[9.155826,53.9037],[9.155941,53.903765],[9.156086,53.903676]]]}},{"type":"Feature","properties":{"kind":"wetland"},"geometry":{"type":"Polygon","coordinates":[[[9.170789,53.889134],[9.17102,53.888824],[9.171066,53.887644],[9.17094,53.887646],[9.170943,53.887591],[9.16966,53.887586],[9.169024,53.887716],[9.169094,53.887982],[9.168874,53.888151],[9.168458,53.888287],[9.169547,53.888843],[9.16933,53.889071],[9.170266,53.889457],[9.170789,53.889134]]]}},{"type":"Feature","properties":{"kind":"pitch"},"geometry":{"type":"Polygon","coordinates":[[[9.134051,53.900113],[9.13423,53.900237],[9.134312,53.900199],[9.134202,53.900044],[9.13419,53.900027],[9.134164,53.899886],[9.134056,53.899895],[9.134079,53.900015],[9.134063,53.900018],[9.133955,53.899945],[9.13387,53.899987],[9.134051,53.900113]]]}},{"type":"Feature","properties":{"kind":"construction"},"geometry":{"type":"Polygon","coordinates":[[[9.121386,53.894832],[9.121463,53.894671],[9.121026,53.894609],[9.120951,53.894763],[9.121386,53.894832]]]}}]}