{"type":"FeatureCollection","features":[{"type":"Feature","id":"way/30417811","properties":{"@id":30417811,"@type":"way","@bounds":{"minlat":53.8969598,"minlon":9.1520403,"maxlat":54.1729525,"maxlon":9.4436782},"CEMT":"VIb","contact:website":"http://www.wsa-kiel.wsv.de/","draft":"9.5","maxspeed":"15","motorboat":"yes","name":"Nord-Ostsee-Kanal","name:en":"Kiel Canal","name:fr":"Canal de Kiel","name:nl":"Noord-Oostzeekanaal","name:sk":"Severomorsko-baltský prieplav","short_name":"NOK","waterway":"canal"},"geometry":{"type":"LineString","coordinates":[[9.4436782,54.1729525],[9.4381195,54.1712022],[9.4346228,54.1701032],[9.4291117,54.1683363],[9.4214004,54.1658182],[9.4171552,54.1646667],[9.4095508,54.1626039],[9.4068592,54.1619837],[9.4030452,54.1611049],[9.3931178,54.1588173],[9.3844973,54.1568308],[9.3792951,54.1551471],[9.3722128,54.1528547],[9.368392,54.1516179],[9.3653449,54.1504572],[9.3626842,54.1494518],[9.3526071,54.1456214],[9.3496115,54.1444778],[9.3422445,54.1402738],[9.3419058,54.1400138],[9.341551,54.1397414],[9.3373091,54.1364853],[9.333519,54.1323575],[9.3320323,54.1296962],[9.3292438,54.1247038],[9.3288363,54.123794],[9.3278176,54.1171641],[9.3282387,54.1146712],[9.3291867,54.1090585],[9.3293342,54.1079365],[9.3296425,54.1056134],[9.3296213,54.1023],[9.3291279,54.0989629],[9.3284377,54.0976898],[9.3279971,54.0968263],[9.3235624,54.0884455],[9.3189885,54.0798],[9.3143404,54.0710123],[9.3139983,54.0702144],[9.3120358,54.0654034],[9.3108095,54.0623967],[9.3094087,54.0589781],[9.3072524,54.0537151],[9.3062741,54.0501027],[9.3055531,54.0477172],[9.3049017,54.0450361],[9.3032373,54.0380463],[9.3028897,54.0368106],[9.3026348,54.0357718],[9.3003657,54.0280639],[9.300202,54.0269311],[9.2979535,54.0181816],[9.2974356,54.0165668],[9.2973523,54.0162757],[9.2955918,54.0094228],[9.2928166,54.0002815],[9.2916097,53.9974383],[9.2877543,53.9920582],[9.2851206,53.9883826],[9.2814712,53.9847898],[9.2803556,53.9838234],[9.2712819,53.9767214],[9.2619356,53.9698292],[9.2535507,53.9636451],[9.2430127,53.9558717],[9.2334845,53.9488419],[9.2255096,53.9429572],[9.2239931,53.9418381],[9.2209867,53.9396465],[9.2143839,53.9348328],[9.2126864,53.9335952],[9.210957,53.9323343],[9.2093015,53.9312345],[9.2044254,53.9279173],[9.1994148,53.9242315],[9.1962224,53.9218429],[9.1951833,53.9211014],[9.1885876,53.9171966],[9.1837419,53.9144719],[9.1781551,53.9113717],[9.1729541,53.9084836],[9.1616431,53.9026961],[9.1590141,53.9011257],[9.1520403,53.8969598]]}},{"type":"Feature","id":"way/60144851","properties":{"@id":60144851,"@type":"way","@bounds":{"minlat":53.8950128,"minlon":9.1465835,"maxlat":53.8969598,"maxlon":9.1520403},"CEMT":"VIb","motorboat":"yes","name":"Nord-Ostsee-Kanal","name:en":"Kiel Canal","name:nl":"Noord-Oostzeekanaal","short_name":"NOK","waterway":"canal"},"geometry":{"type":"LineString","coordinates":[[9.1520403,53.8969598],[9.1484568,53.8960532],[9.1465835,53.8950128]]}},{"type":"Feature","id":"way/60144854","properties":{"@id":60144854,"@type":"way","@bounds":{"minlat":53.8925964,"minlon":9.1486098,"maxlat":53.894265,"maxlon":9.1503092},"CEMT":"VIb","motorboat":"yes","name":"Nord-Ostsee-Kanal","name:en":"Kiel Canal","name:nl":"Noord-Oostzeekanaal","short_name":"NOK","waterway":"canal"},"geometry":{"type":"LineString","coordinates":[[9.1503092,53.894265],[9.1497426,53.8933981],[9.1486098,53.8925964]]}},{"type":"Feature","id":"way/60195293","properties":{"@id":60195293,"@type":"way","@bounds":{"minlat":53.8928063,"minlon":9.1481593,"maxlat":53.8969598,"maxlon":9.1520403},"CEMT":"VIb","motorboat":"yes","name":"Nord-Ostsee-Kanal","name:en":"Kiel Canal","name:nl":"Noord-Oostzeekanaal","short_name":"NOK","waterway":"canal"},"geometry":{"type":"LineString","coordinates":[[9.1520403,53.8969598],[9.1503092,53.894265],[9.1481593,53.8928063]]}},{"type":"Feature","id":"way/144489145","properties":{"@id":144489145,"@type":"way","@bounds":{"minlat":53.8925624,"minlon":9.1433554,"maxlat":53.8946255,"maxlon":9.1472314},"CEMT":"VIb","description":"FT Schleuse Brunsbuettel (Nord-Ostsee-Kanal)","lock":"yes","lock_name":"Schleuse Brunsbüttel","maxlength":"330","maxwidth":"45","motorboat":"yes","name":"Nord-Ostsee-Kanal","name:en":"Kiel Canal","name:nl":"Noord-Oostzeekanaal","opening_hours":"24/7","passage_time":"45","phone":"+49 4852 885213","seamark:type":"lock_basin","short_name":"NOK","vhf":"13","waterway":"canal"},"geometry":{"type":"LineString","coordinates":[[9.1472314,53.8946255],[9.1433554,53.8925624]]}},{"type":"Feature","id":"way/144489146","properties":{"@id":144489146,"@type":"way","@bounds":{"minlat":53.8930052,"minlon":9.1427015,"maxlat":53.8950128,"maxlon":9.1465835},"CEMT":"VIb","description":"FT Schleuse Brunsbuettel (Nord-Ostsee-Kanal)","lock":"yes","lock_name":"Schleuse Brunsbüttel","maxlength":"330","maxwidth":"45","motorboat":"yes","name":"Nord-Ostsee-Kanal","name:en":"Kiel Canal","name:nl":"Noord-Oostzeekanaal","opening_hours":"24/7","passage_time":"45","phone":"+49 4852 885213","seamark:type":"lock_basin","short_name":"NOK","vhf":"13","waterway":"canal"},"geometry":{"type":"LineString","coordinates":[[9.1465835,53.8950128],[9.1427015,53.8930052]]}},{"type":"Feature","id":"way/144489147","properties":{"@id":144489147,"@type":"way","@bounds":{"minlat":53.8893736,"minlon":9.1365314,"maxlat":53.8930052,"maxlon":9.1427015},"CEMT":"VIb","motorboat":"yes","name":"Nord-Ostsee-Kanal","name:en":"Kiel Canal","name:nl":"Noord-Oostzeekanaal","short_name":"NOK","waterway":"canal"},"geometry":{"type":"LineString","coordinates":[[9.1427015,53.8930052],[9.1404933,53.8918541],[9.1365314,53.8893736]]}},{"type":"Feature","id":"way/144489148","properties":{"@id":144489148,"@type":"way","@bounds":{"minlat":53.8893736,"minlon":9.1365314,"maxlat":53.8925624,"maxlon":9.1433554},"CEMT":"VIb","motorboat":"yes","name":"Nord-Ostsee-Kanal","name:en":"Kiel Canal","name:nl":"Noord-Oostzeekanaal","short_name":"NOK","tidal":"yes","waterway":"canal"},"geometry":{"type":"LineString","coordinates":[[9.1433554,53.8925624],[9.1414364,53.8915048],[9.1365314,53.8893736]]}},{"type":"Feature","id":"way/169229639","properties":{"@id":169229639,"@type":"way","@bounds":{"minlat":53.8916815,"minlon":9.1466233,"maxlat":53.8928063,"maxlon":9.1481593},"CEMT":"VIb","description":"FT Schleuse Brunsbuettel (Nord-Ostsee-Kanal)","lock":"yes","lock_name":"Schleuse Brunsbüttel","maxlength":"125","maxwidth":"22","motorboat":"yes","name":"Nord-Ostsee-Kanal","name:en":"Kiel Canal","name:nl":"Noord-Oostzeekanaal","opening_hours":"24/7","passage_time":"30","phone":"+49 4852 885213","seamark:type":"lock_basin","short_name":"NOK","vhf":"13","waterway":"canal"},"geometry":{"type":"LineString","coordinates":[[9.1481593,53.8928063],[9.1466233,53.8916815]]}},{"type":"Feature","id":"way/169229640","properties":{"@id":169229640,"@type":"way","@bounds":{"minlat":53.8914538,"minlon":9.1470328,"maxlat":53.8925964,"maxlon":9.1486098},"CEMT":"VIb","description":"FT Schleuse Brunsbuettel (Nord-Ostsee-Kanal)","lock":"yes","lock_name":"Schleuse Brunsbüttel","maxlength":"125","maxwidth":"22","motorboat":"yes","name":"Nord-Ostsee-Kanal","name:en":"Kiel Canal","name:nl":"Noord-Oostzeekanaal","opening_hours":"24/7","passage_time":"30","phone":"+49 4852 885213","seamark:type":"lock_basin","short_name":"NOK","vhf":"13","waterway":"canal"},"geometry":{"type":"LineString","coordinates":[[9.1486098,53.8925964],[9.1470328,53.8914538]]}},{"type":"Feature","id":"way/169229642","properties":{"@id":169229642,"@type":"way","@bounds":{"minlat":53.8892894,"minlon":9.1435267,"maxlat":53.8914538,"maxlon":9.1470328},"CEMT":"VIb","motorboat":"yes","name":"Nord-Ostsee-Kanal","name:en":"Kiel Canal","name:nl":"Noord-Oostzeekanaal","short_name":"NOK","waterway":"canal"},"geometry":{"type":"LineString","coordinates":[[9.1470328,53.8914538],[9.1435267,53.8892894]]}},{"type":"Feature","id":"way/169229643","properties":{"@id":169229643,"@type":"way","@bounds":{"minlat":53.8855127,"minlon":9.1296487,"maxlat":53.8916815,"maxlon":9.1466233},"CEMT":"VIb","motorboat":"yes","name":"Nord-Ostsee-Kanal","name:en":"Kiel Canal","name:nl":"Noord-Oostzeekanaal","short_name":"NOK","tidal":"yes","waterway":"canal"},"geometry":{"type":"LineString","coordinates":[[9.1466233,53.8916815],[9.1435267,53.8892894],[9.1417387,53.8880167],[9.1385519,53.8868699],[9.1357145,53.8863219],[9.1296487,53.8855127]]}},{"type":"Feature","id":"way/176620628","properties":{"@id":176620628,"@type":"way","@bounds":{"minlat":53.8900655,"minlon":9.1527349,"maxlat":53.8932114,"maxlon":9.1540966},"waterway":"canal","width":"9"},"geometry":{"type":"LineString","coordinates":[[9.1540966,53.8932114],[9.1538778,53.8928297],[9.1537183,53.8923676],[9.1534965,53.891848],[9.1529863,53.8905259],[9.1527349,53.8900655]]}},{"type":"Feature","id":"way/176681484","properties":{"@id":176681484,"@type":"way","@bounds":{"minlat":53.8938851,"minlon":9.1542592,"maxlat":53.8946232,"maxlon":9.1550623},"waterway":"canal","width":"9"},"geometry":{"type":"LineString","coordinates":[[9.1542592,53.8938851],[9.1550623,53.8946232]]}},{"type":"Feature","id":"way/451685344","properties":{"@id":451685344,"@type":"way","@bounds":{"minlat":53.892766,"minlon":9.1480359,"maxlat":53.8929152,"maxlon":9.1483574},"waterway":"lock_gate"},"geometry":{"type":"LineString","coordinates":[[9.1483574,53.892766],[9.1481593,53.8928063],[9.1480359,53.8929152]]}},{"type":"Feature","id":"way/451685345","properties":{"@id":451685345,"@type":"way","@bounds":{"minlat":53.8916572,"minlon":9.1465244,"maxlat":53.8917922,"maxlon":9.1468226},"waterway":"lock_gate"},"geometry":{"type":"LineString","coordinates":[[9.1468226,53.8916572],[9.1466233,53.8916815],[9.1465244,53.8917922]]}},{"type":"Feature","id":"way/451685346","properties":{"@id":451685346,"@type":"way","@bounds":{"minlat":53.8925492,"minlon":9.1484812,"maxlat":53.8927148,"maxlon":9.1488173},"waterway":"lock_gate"},"geometry":{"type":"LineString","coordinates":[[9.1488173,53.8925492],[9.1486098,53.8925964],[9.1484812,53.8927148]]}},{"type":"Feature","id":"way/451685347","properties":{"@id":451685347,"@type":"way","@bounds":{"minlat":53.8914396,"minlon":9.146914,"maxlat":53.8915745,"maxlon":9.1472708},"waterway":"lock_gate"},"geometry":{"type":"LineString","coordinates":[[9.1472708,53.8914396],[9.1470328,53.8914538],[9.146914,53.8915745]]}},{"type":"Feature","id":"way/451826175","properties":{"@id":451826175,"@type":"way","@bounds":{"minlat":53.8928353,"minlon":9.1424743,"maxlat":53.8931438,"maxlon":9.1429366},"waterway":"lock_gate"},"geometry":{"type":"LineString","coordinates":[[9.1429366,53.8928353],[9.1427015,53.8930052],[9.1424743,53.8931438]]}},{"type":"Feature","id":"way/451826176","properties":{"@id":451826176,"@type":"way","@bounds":{"minlat":53.894478,"minlon":9.1469582,"maxlat":53.8947786,"maxlon":9.1474583},"seamark:type":"gate","waterway":"lock_gate"},"geometry":{"type":"LineString","coordinates":[[9.1474583,53.894478],[9.1472314,53.8946255],[9.1469582,53.8947786]]}},{"type":"Feature","id":"way/451826177","properties":{"@id":451826177,"@type":"way","@bounds":{"minlat":53.8948872,"minlon":9.1463581,"maxlat":53.8951767,"maxlon":9.146821},"seamark:type":"gate","waterway":"lock_gate"},"geometry":{"type":"LineString","coordinates":[[9.146821,53.8948872],[9.1465835,53.8950128],[9.1463581,53.8951767]]}},{"type":"Feature","id":"way/451826178","properties":{"@id":451826178,"@type":"way","@bounds":{"minlat":53.8924148,"minlon":9.1431296,"maxlat":53.8927097,"maxlon":9.1435815},"waterway":"lock_gate"},"geometry":{"type":"LineString","coordinates":[[9.1435815,53.8924148],[9.1433554,53.8925624],[9.1431296,53.8927097]]}},{"type":"Feature","id":"way/1470915265","properties":{"@id":1470915265,"@type":"way","@bounds":{"minlat":53.8946255,"minlon":9.1472314,"maxlat":53.8969598,"maxlon":9.1520403},"CEMT":"VIb","contact:website":"http://www.wsa-kiel.wsv.de/","draft":"9.5","maxspeed":"15","motorboat":"yes","name":"Nord-Ostsee-Kanal","name:en":"Kiel Canal","name:fr":"Canal de Kiel","name:nl":"Noord-Oostzeekanaal","name:sk":"Severomorsko-baltský prieplav","short_name":"NOK","waterway":"canal"},"geometry":{"type":"LineString","coordinates":[[9.1520403,53.8969598],[9.1472314,53.8946255]]}}]}