{"type":"FeatureCollection","features":[{"type":"Feature","properties":{"kind":"bay"},"geometry":{"type":"Polygon","coordinates":[[[9.125347,53.884714],[9.12525,53.8753],[9.1157,53.8753],[9.1157,53.884851],[9.125347,53.884714]]]}},{"type":"Feature","properties":{"kind":"water"},"geometry":{"type":"Polygon","coordinates":[[[9.121898,53.892343],[9.121682,53.892359],[9.121466,53.892344],[9.121463,53.892356],[9.121458,53.892369],[9.121629,53.89239],[9.121783,53.892439],[9.121959,53.892462],[9.122196,53.892522],[9.122383,53.892589],[9.122433,53.892573],[9.122477,53.892479],[9.122523,53.892449],[9.122504,53.892368],[9.122259,53.892347],[9.121898,53.892343]]]}},{"type":"Feature","properties":{"kind":"lock"},"geometry":{"type":"Polygon","coordinates":[[[9.142474,53.893144],[9.146358,53.895177],[9.146584,53.895013],[9.146821,53.894887],[9.142937,53.892835],[9.142701,53.893005],[9.142474,53.893144]]]}},{"type":"Feature","properties":{"kind":"lock"},"geometry":{"type":"Polygon","coordinates":[[[9.146958,53.894779],[9.147231,53.894625],[9.147458,53.894478],[9.143581,53.892415],[9.143355,53.892562],[9.14313,53.89271],[9.146958,53.894779]]]}},{"type":"Feature","properties":{"kind":"lock"},"geometry":{"type":"Polygon","coordinates":[[[9.148036,53.892915],[9.148159,53.892806],[9.148357,53.892766],[9.146823,53.891657],[9.146623,53.891681],[9.146524,53.891792],[9.148036,53.892915]]]}},{"type":"Feature","properties":{"kind":"lock"},"geometry":{"type":"Polygon","coordinates":[[[9.148481,53.892715],[9.14861,53.892596],[9.148817,53.892549],[9.147271,53.89144],[9.147033,53.891454],[9.146914,53.891574],[9.148481,53.892715]]]}},{"type":"Feature","properties":{"kind":"canal"},"geometry":{"type":"Polygon","coordinates":[[[9.1683,53.904882],[9.165285,53.903242],[9.162206,53.901497],[9.158983,53.899154],[9.156161,53.897103],[9.156161,53.897059],[9.15645,53.896929],[9.156318,53.896776],[9.156309,53.896594],[9.156273,53.896452],[9.156213,53.896429],[9.155623,53.896402],[9.155509,53.896383],[9.155421,53.896336],[9.15526,53.896417],[9.154495,53.895841],[9.1536,53.895208],[9.149817,53.892434],[9.14913,53.892767],[9.149035,53.892709],[9.148817,53.892549],[9.14861,53.892596],[9.148481,53.892715],[9.148782,53.892918],[9.148653,53.89298],[9.148357,53.892766],[9.148159,53.892806],[9.148036,53.892915],[9.148339,53.893134],[9.148101,53.893235],[9.147405,53.89357],[9.147869,53.893998],[9.148179,53.894165],[9.147863,53.894398],[9.147736,53.894491],[9.147829,53.894543],[9.147739,53.894612],[9.147458,53.894478],[9.147231,53.894625],[9.146958,53.894779],[9.147206,53.894924],[9.147061,53.89501],[9.146821,53.894887],[9.146584,53.895013],[9.146358,53.895177],[9.146601,53.895301],[9.146585,53.895327],[9.146633,53.895363],[9.146596,53.89538],[9.146508,53.895437],[9.14639,53.89538],[9.146371,53.895372],[9.146029,53.895599],[9.146009,53.895612],[9.146561,53.895949],[9.147254,53.896357],[9.147542,53.896581],[9.147779,53.896734],[9.14791,53.89669],[9.148015,53.896806],[9.147938,53.896834],[9.148052,53.897286],[9.148193,53.897474],[9.148224,53.897752],[9.148556,53.897931],[9.148562,53.897981],[9.148359,53.89809],[9.147976,53.898054],[9.147839,53.898281],[9.148259,53.898416],[9.147995,53.898862],[9.148665,53.899212],[9.149152,53.899481],[9.14974,53.899793],[9.149826,53.899728],[9.150076,53.899853],[9.151156,53.899197],[9.151796,53.899496],[9.151139,53.899904],[9.151314,53.899988],[9.152162,53.89944],[9.152225,53.899437],[9.152612,53.899642],[9.155601,53.901227],[9.156579,53.901753],[9.15892,53.90299],[9.161681,53.904458],[9.161753,53.904495],[9.163417,53.905345],[9.163477,53.905376],[9.164565,53.905929],[9.16462,53.905958],[9.165391,53.90635],[9.165401,53.90642],[9.16391,53.907363],[9.16393,53.907428],[9.165547,53.908301],[9.166044,53.90857],[9.166119,53.908611],[9.166218,53.908667],[9.167311,53.909272],[9.167407,53.909325],[9.167487,53.90937],[9.169048,53.910207],[9.169106,53.910238],[9.169159,53.910267],[9.171055,53.9113],[9.174394,53.9113],[9.174339,53.911242],[9.171848,53.909882],[9.169575,53.908488],[9.169785,53.908353],[9.175343,53.9113],[9.1767,53.9113],[9.1767,53.909328],[9.1683,53.904882]]]}},{"type":"Feature","properties":{"kind":"water"},"geometry":{"type":"Polygon","coordinates":[[[9.154569,53.893563],[9.154526,53.893364],[9.15445,53.893309],[9.154438,53.89318],[9.154397,53.893173],[9.154291,53.893173],[9.154185,53.893236],[9.154097,53.893211],[9.153997,53.893215],[9.153979,53.893277],[9.154038,53.893329],[9.154079,53.893461],[9.154067,53.893548],[9.154114,53.893634],[9.154226,53.893711],[9.154569,53.893563]]]}},{"type":"Feature","properties":{"kind":"water"},"geometry":{"type":"Polygon","coordinates":[[[9.137706,53.903428],[9.137681,53.903484],[9.137728,53.90358],[9.137684,53.903696],[9.137749,53.90382],[9.137835,53.903959],[9.137934,53.90407],[9.13804,53.904134],[9.138139,53.904109],[9.138187,53.904054],[9.1382,53.903845],[9.138196,53.903683],[9.138238,53.903475],[9.138257,53.903336],[9.138243,53.903239],[9.13799,53.903193],[9.137878,53.903251],[9.137706,53.903428]]]}},{"type":"Feature","properties":{"kind":"reservoir"},"geometry":{"type":"Polygon","coordinates":[[[9.124636,53.902335],[9.124292,53.902234],[9.124142,53.901994],[9.123906,53.902095],[9.123713,53.902272],[9.123927,53.902423],[9.124163,53.902575],[9.124485,53.902828],[9.124681,53.90305],[9.124923,53.902991],[9.125003,53.902859],[9.124764,53.902804],[9.124845,53.902441],[9.124636,53.902335]]]}},{"type":"Feature","properties":{"kind":"water"},"geometry":{"type":"Polygon","coordinates":[[[9.130925,53.895755],[9.131,53.895805],[9.131193,53.89571],[9.131536,53.895565],[9.131504,53.895502],[9.131289,53.895432],[9.131085,53.895445],[9.130946,53.895527],[9.130871,53.895641],[9.130925,53.895755]]]}},{"type":"Feature","properties":{"kind":"reservoir"},"geometry":{"type":"Polygon","coordinates":[[[9.12712,53.902924],[9.127224,53.902996],[9.127355,53.903028],[9.127436,53.903017],[9.12751,53.902985],[9.127553,53.902942],[9.127545,53.902909],[9.127484,53.902837],[9.127426,53.90279],[9.127332,53.902764],[9.127196,53.902744],[9.127145,53.9027],[9.127126,53.902637],[9.127103,53.902599],[9.126996,53.902592],[9.126871,53.902603],[9.12673,53.902658],[9.126634,53.902736],[9.126668,53.902809],[9.126726,53.902874],[9.126823,53.902889],[9.126913,53.902883],[9.127002,53.902856],[9.127073,53.902823],[9.127092,53.902862],[9.12712,53.902924]]]}},{"type":"Feature","properties":{"kind":"river"},"geometry":{"type":"Polygon","coordinates":[[[9.145402,53.9105],[9.146282,53.909224],[9.146389,53.909066],[9.146191,53.908771],[9.145209,53.908029],[9.143299,53.906841],[9.142323,53.906127],[9.141593,53.905527],[9.140595,53.904642],[9.139576,53.90351],[9.138964,53.902739],[9.138634,53.902061],[9.138583,53.901956],[9.137439,53.900951],[9.13684,53.9004],[9.136639,53.900175],[9.136567,53.900115],[9.13646,53.900003],[9.136186,53.899718],[9.136045,53.899607],[9.13599,53.899561],[9.135553,53.899212],[9.134512,53.89828],[9.134135,53.89796],[9.133761,53.897758],[9.133278,53.897606],[9.133092,53.897588],[9.133056,53.897585],[9.132864,53.89757],[9.132613,53.89761],[9.132411,53.897579],[9.132028,53.897402],[9.131725,53.897139],[9.131188,53.896884],[9.130706,53.896783],[9.129375,53.896664],[9.129135,53.896578],[9.128807,53.896363],[9.128355,53.896015],[9.127914,53.895691],[9.12771,53.895539],[9.127573,53.895615],[9.127434,53.895673],[9.127634,53.89582],[9.128288,53.896211],[9.12905,53.896673],[9.129248,53.896774],[9.129418,53.896834],[9.129574,53.896857],[9.129824,53.896873],[9.130572,53.896905],[9.131068,53.897032],[9.13152,53.897212],[9.131721,53.897429],[9.132087,53.897631],[9.133042,53.897935],[9.133743,53.898422],[9.134742,53.899367],[9.135864,53.900366],[9.1368,53.901198],[9.137894,53.902146],[9.139157,53.903486],[9.139838,53.904243],[9.140897,53.905293],[9.141078,53.905394],[9.141518,53.90576],[9.142258,53.906316],[9.143031,53.906917],[9.144183,53.907603],[9.144951,53.908086],[9.145724,53.908592],[9.146178,53.908975],[9.144951,53.910703],[9.144511,53.9113],[9.144786,53.9113],[9.145402,53.9105]]]}},{"type":"Feature","properties":{"kind":"river"},"geometry":{"type":"Polygon","coordinates":[[[9.123555,53.892273],[9.123824,53.892444],[9.124062,53.892424],[9.124261,53.892409],[9.124353,53.892438],[9.12452,53.892781],[9.124723,53.893177],[9.124799,53.89327],[9.12489,53.89338],[9.125042,53.89354],[9.125249,53.893764],[9.1255,53.894021],[9.125936,53.894497],[9.126128,53.89467],[9.126447,53.894974],[9.126661,53.89515],[9.126784,53.895209],[9.127072,53.895329],[9.127136,53.895373],[9.127256,53.895322],[9.127451,53.895242],[9.12742,53.89519],[9.127345,53.895136],[9.127394,53.895039],[9.127426,53.89497],[9.127444,53.894919],[9.127418,53.894867],[9.127378,53.894832],[9.127233,53.894723],[9.127155,53.894714],[9.126914,53.894534],[9.126671,53.894428],[9.126547,53.894359],[9.126396,53.894282],[9.126345,53.894222],[9.125853,53.89368],[9.125465,53.893259],[9.125249,53.89289],[9.124968,53.892001],[9.124728,53.892003],[9.124602,53.891568],[9.124465,53.891112],[9.124344,53.890819],[9.124231,53.89052],[9.124123,53.890553],[9.124001,53.890604],[9.124135,53.891045],[9.124309,53.891511],[9.124424,53.891862],[9.124172,53.891959],[9.123442,53.892111],[9.123461,53.892138],[9.123499,53.892191],[9.123555,53.892273]]]}},{"type":"Feature","properties":{"kind":"water"},"geometry":{"type":"Polygon","coordinates":[[[9.165914,53.895329],[9.165859,53.895287],[9.165734,53.895326],[9.16565,53.89538],[9.165649,53.895428],[9.165692,53.895448],[9.165782,53.895445],[9.165911,53.895365],[9.165914,53.895329]]]}},{"type":"Feature","properties":{"kind":"water"},"geometry":{"type":"Polygon","coordinates":[[[9.11631,53.894669],[9.116587,53.894545],[9.116265,53.894295],[9.115988,53.894419],[9.11631,53.894669]]]}},{"type":"Feature","properties":{"kind":"water"},"geometry":{"type":"Polygon","coordinates":[[[9.16455,53.891382],[9.16454,53.890601],[9.164486,53.890484],[9.164266,53.890484],[9.164266,53.89116],[9.164277,53.891382],[9.16455,53.891382]]]}},{"type":"Feature","properties":{"kind":"water"},"geometry":{"type":"Polygon","coordinates":[[[9.160947,53.890535],[9.161206,53.890399],[9.161424,53.89029],[9.161395,53.890267],[9.161372,53.890293],[9.160827,53.890399],[9.160872,53.890557],[9.160947,53.890535]]]}},{"type":"Feature","properties":{"kind":"water"},"geometry":{"type":"Polygon","coordinates":[[[9.1205,53.903243],[9.120514,53.903216],[9.120482,53.903186],[9.120208,53.903235],[9.119991,53.903224],[9.1198,53.903213],[9.119642,53.903227],[9.119342,53.90327],[9.119285,53.903283],[9.119358,53.903325],[9.119548,53.903338],[9.119814,53.903327],[9.120256,53.903336],[9.120369,53.903313],[9.120457,53.903276],[9.120495,53.903257],[9.1205,53.903243]]]}},{"type":"Feature","properties":{"kind":"water"},"geometry":{"type":"Polygon","coordinates":[[[9.131421,53.899039],[9.131494,53.899071],[9.131542,53.899069],[9.131571,53.899054],[9.131565,53.899015],[9.131508,53.898958],[9.131464,53.898952],[9.131425,53.898959],[9.131387,53.898998],[9.131421,53.899039]]]}},{"type":"Feature","properties":{"kind":"pond"},"geometry":{"type":"Polygon","coordinates":[[[9.131692,53.911233],[9.131666,53.911186],[9.131604,53.911185],[9.131551,53.911189],[9.131516,53.911248],[9.131466,53.9113],[9.131713,53.9113],[9.131692,53.911233]]]}},{"type":"Feature","properties":{"kind":"lock"},"geometry":{"type":"Polygon","coordinates":[[[9.147915,53.893215],[9.144084,53.891155],[9.143559,53.891494],[9.147391,53.893554],[9.147915,53.893215]]]}}]}